{"type":"FeatureCollection","attribution":"© OpenStreetMap contributors, ODbL 1.0 — https://www.openstreetmap.org/copyright","fetchedAt":"2026-09-11T09:44:28.879Z","features":[{"type":"Feature","geometry":{"type":"MultiPolygon","coordinates":[[[[44.4791876,40.1872376],[44.4797743,40.1849395],[44.4802275,40.183828],[44.4805142,40.1832857],[44.4809921,40.1827813],[44.481394,40.1823477],[44.4824111,40.1815129],[44.4827642,40.1812921],[44.4830712,40.1811042],[44.483266,40.1810486],[44.4834717,40.1809813],[44.4838469,40.1809935],[44.4841875,40.1810546],[44.4845069,40.1811428],[44.4853988,40.1814814],[44.4859696,40.1815744],[44.4863675,40.1815197],[44.4867186,40.1813816],[44.487368,40.1810371],[44.4866801,40.1802942],[44.4856026,40.1789712],[44.4861988,40.1786073],[44.4865865,40.1771418],[44.4857352,40.176468],[44.4843358,40.1761311],[44.4841742,40.175727],[44.4840159,40.1756296],[44.483962,40.1752814],[44.4839545,40.1750598],[44.4839826,40.1747872],[44.4840795,40.1742875],[44.4841209,40.1742098],[44.4843058,40.174037],[44.4838398,40.1735101],[44.4837442,40.1734128],[44.4859273,40.1704778],[44.486765,40.169242],[44.4868661,40.1692687],[44.4872223,40.1688871],[44.4873262,40.1687809],[44.4874608,40.1680833],[44.4873611,40.1677902],[44.4871015,40.1676313],[44.4868285,40.1676347],[44.4865432,40.1676982],[44.4861553,40.1678775],[44.4859616,40.1680894],[44.4841549,40.1670394],[44.4837162,40.1667935],[44.48353,40.1666738],[44.4845986,40.1655728],[44.4849108,40.1658677],[44.4853898,40.1661796],[44.4859653,40.1663438],[44.4867108,40.1663545],[44.4873395,40.1661863],[44.4878333,40.1659298],[44.4883773,40.1656567],[44.4887571,40.1651959],[44.4890835,40.164534],[44.489224,40.1639935],[44.489224,40.1631177],[44.4881631,40.1620367],[44.4866224,40.1608088],[44.4863925,40.1604225],[44.4866269,40.1600194],[44.4870699,40.1596598],[44.488895,40.1594077],[44.4905583,40.1593433],[44.4915614,40.1591843],[44.4921831,40.1589771],[44.4931034,40.1584762],[44.4942546,40.1579187],[44.4946501,40.1579616],[44.4953641,40.1579796],[44.4964673,40.1579796],[44.49718,40.1580864],[44.4977454,40.1583336],[44.4981086,40.1585739],[44.4985132,40.159115],[44.4991084,40.160512],[44.4992091,40.1607485],[44.4993339,40.1609982],[44.4995823,40.1616044],[44.5002308,40.1621737],[44.5007599,40.1627608],[44.5009398,40.1632233],[44.5009977,40.1634871],[44.5009871,40.1637246],[44.5008295,40.1638816],[44.5013441,40.1641054],[44.5018539,40.1643031],[44.5022903,40.1644723],[44.5032167,40.1638084],[44.5038388,40.1636758],[44.5044384,40.163277],[44.5054837,40.1632593],[44.5081949,40.1631536],[44.5092566,40.1631407],[44.5100186,40.1631195],[44.5110033,40.163092],[44.5117244,40.1630644],[44.5125669,40.1630321],[44.5127105,40.1630266],[44.5127797,40.1629167],[44.5129412,40.1626599],[44.5130786,40.1624416],[44.5134095,40.1619157],[44.5137201,40.1614219],[44.5144859,40.1602421],[44.5151493,40.159895],[44.5156748,40.1597375],[44.5164539,40.159647],[44.5171658,40.1597482],[44.5172772,40.1597697],[44.5174856,40.1598031],[44.5176908,40.159858],[44.5177172,40.1598649],[44.5178386,40.1598975],[44.5186187,40.160106],[44.5189094,40.1601765],[44.5195253,40.1605293],[44.5195539,40.1605457],[44.5199061,40.1607767],[44.5200309,40.1609642],[44.5200428,40.1610251],[44.5203346,40.1615439],[44.5204754,40.1618042],[44.5206057,40.1620449],[44.5206766,40.1621757],[44.52071,40.1622375],[44.5209366,40.162583],[44.5209603,40.1626192],[44.5218626,40.1634446],[44.5221376,40.1637679],[44.5222608,40.1639916],[44.5223909,40.1642008],[44.5224736,40.1643499],[44.5227037,40.1647875],[44.5228659,40.1650694],[44.5231087,40.1654383],[44.5234319,40.1659415],[44.523515,40.1660737],[44.5237108,40.1663217],[44.5239388,40.1666353],[44.5241373,40.1669223],[44.5244364,40.1672964],[44.5246606,40.1675385],[44.5246992,40.1675802],[44.524832,40.1676899],[44.5250841,40.1679061],[44.5253349,40.168106],[44.5254552,40.1681891],[44.5255708,40.168264],[44.5257194,40.168327],[44.5258089,40.1683546],[44.5267024,40.1690165],[44.526762,40.1690692],[44.5272063,40.1695649],[44.5274672,40.170091],[44.5284273,40.1723582],[44.5285997,40.1736845],[44.5285851,40.1761499],[44.5286474,40.1768659],[44.5288253,40.1774846],[44.5294583,40.1781323],[44.5306964,40.1789105],[44.5309566,40.179051],[44.5310837,40.1792238],[44.5314137,40.1796803],[44.5316692,40.1802845],[44.5317216,40.1806581],[44.5317064,40.1810108],[44.5315727,40.1813925],[44.5313624,40.1817406],[44.5309146,40.1821935],[44.5302668,40.1827989],[44.5297307,40.1833201],[44.5294317,40.1839053],[44.529191,40.1848682],[44.5288782,40.1855101],[44.5285408,40.1861221],[44.5283199,40.1866802],[44.5283179,40.1872212],[44.5282992,40.1874595],[44.5285018,40.1878489],[44.528745,40.1881594],[44.5291449,40.18852],[44.5293297,40.1886777],[44.5302997,40.189229],[44.5311465,40.1898154],[44.5315359,40.1901768],[44.5320304,40.1907006],[44.5323723,40.1910508],[44.5324494,40.1912613],[44.5325084,40.191452],[44.5325393,40.1916231],[44.5325607,40.1917788],[44.5325641,40.1919519],[44.5325547,40.1921558],[44.5325513,40.1922331],[44.5325369,40.192376],[44.532484,40.1924962],[44.533308,40.1927638],[44.5335453,40.1928409],[44.5341831,40.1932138],[44.535206,40.1940907],[44.5358884,40.1946789],[44.5361042,40.1948333],[44.536287,40.1949445],[44.5365092,40.1950473],[44.5367074,40.1951246],[44.536964,40.1951943],[44.5373223,40.1952529],[44.5374432,40.1952623],[44.5376527,40.195265],[44.5378445,40.1952498],[44.5380671,40.1952228],[44.5382053,40.1951952],[44.5384177,40.1951528],[44.5387871,40.1950744],[44.5392525,40.1949827],[44.5397496,40.1948936],[44.5402229,40.194788],[44.5407805,40.194685],[44.5413581,40.1945875],[44.5422508,40.194486],[44.5440134,40.1944103],[44.5478954,40.1950002],[44.5475764,40.1954503],[44.5474249,40.1956112],[44.5479359,40.1961261],[44.5473162,40.1967975],[44.54557,40.1967216],[44.544545,40.1964412],[44.5439179,40.1964256],[44.5420904,40.1958959],[44.5397002,40.1967574],[44.5373992,40.1970633],[44.5351414,40.1968634],[44.5344604,40.1959457],[44.5338343,40.1954132],[44.5327622,40.1944533],[44.532591,40.194293],[44.5319677,40.1937419],[44.5305615,40.1941833],[44.5304953,40.1941839],[44.5299483,40.1942905],[44.5288968,40.1944134],[44.5255375,40.1944136],[44.5235861,40.1940938],[44.5227721,40.1939014],[44.5219108,40.1937403],[44.5213759,40.1937168],[44.5205575,40.1938185],[44.5190233,40.1942379],[44.5184238,40.1943748],[44.5184133,40.1943772],[44.5177876,40.1944887],[44.5173376,40.1945734],[44.5169234,40.1946215],[44.5167192,40.1946994],[44.5165745,40.1947904],[44.5165646,40.1948022],[44.5163928,40.1950618],[44.5163867,40.1952854],[44.5164424,40.1954074],[44.5165095,40.1955858],[44.5147076,40.1956421],[44.5146982,40.1955651],[44.5142172,40.1952759],[44.5135768,40.195838],[44.5123306,40.1969315],[44.5115912,40.197548],[44.5111278,40.1979503],[44.5110904,40.1979828],[44.5103603,40.1983508],[44.5101819,40.1982139],[44.5100769,40.1981897],[44.5099027,40.1981983],[44.5095322,40.1982277],[44.509268,40.1982436],[44.5092469,40.1982449],[44.5091976,40.1982479],[44.5091575,40.1980059],[44.507904,40.1979364],[44.5072262,40.1978678],[44.5060551,40.1974866],[44.5050915,40.1971471],[44.50525,40.1963293],[44.5052555,40.1954515],[44.5052468,40.1953629],[44.5050885,40.1951337],[44.5048615,40.194815],[44.5048481,40.1946859],[44.5048553,40.1945076],[44.5051331,40.1935564],[44.5049184,40.1932216],[44.5046671,40.1929957],[44.5042632,40.193033],[44.5042577,40.1926731],[44.5040476,40.192843],[44.5039765,40.1923481],[44.5043541,40.1923126],[44.5043036,40.192078],[44.504336,40.1920173],[44.504199,40.1914144],[44.5036906,40.1892836],[44.5037591,40.1888896],[44.5046514,40.1874008],[44.5044351,40.187359],[44.5044001,40.1873686],[44.5043555,40.1873923],[44.5035114,40.1883681],[44.5027795,40.1892282],[44.5012328,40.1892085],[44.5004704,40.189209],[44.5001089,40.1892093],[44.4979238,40.1890864],[44.4974446,40.1893231],[44.4968237,40.1898597],[44.4964565,40.18991],[44.4960479,40.1896924],[44.4951701,40.1888935],[44.4947512,40.1889039],[44.494398,40.1890368],[44.4936037,40.1898371],[44.4928205,40.1902416],[44.4917256,40.1902661],[44.4893794,40.1903227],[44.4876219,40.1909689],[44.4868062,40.1912688],[44.4861186,40.1913145],[44.4836701,40.1911443],[44.4826986,40.1913026],[44.4825854,40.1914508],[44.482399,40.1913424],[44.4804462,40.1902063],[44.4794821,40.1895831],[44.4793877,40.1894574],[44.4792561,40.1888146],[44.4793569,40.1880994],[44.479402,40.1877012],[44.4794926,40.187281],[44.4791876,40.1872376]]]]},"properties":{"slug":"kentron","kind":"CITY_DISTRICT","city":"Yerevan","marz":"Yerevan","osmType":"relation","osmId":13404218,"nameHy":"Կենտրոն","nameRu":"Кентрон","nameEn":"Kentron"}},{"type":"Feature","geometry":{"type":"MultiPolygon","coordinates":[[[[44.4809994,40.1938813],[44.4812307,40.1930505],[44.4819057,40.1923405],[44.4825854,40.1914508],[44.4826986,40.1913026],[44.4836701,40.1911443],[44.4861186,40.1913145],[44.4868062,40.1912688],[44.4876219,40.1909689],[44.4893794,40.1903227],[44.4917256,40.1902661],[44.4928205,40.1902416],[44.4936037,40.1898371],[44.494398,40.1890368],[44.4947512,40.1889039],[44.4951701,40.1888935],[44.4960479,40.1896924],[44.4964565,40.18991],[44.4968237,40.1898597],[44.4974446,40.1893231],[44.4979238,40.1890864],[44.5001089,40.1892093],[44.5004704,40.189209],[44.5012328,40.1892085],[44.5027795,40.1892282],[44.5035114,40.1883681],[44.5043555,40.1873923],[44.5044001,40.1873686],[44.5044351,40.187359],[44.5046514,40.1874008],[44.5037591,40.1888896],[44.5036906,40.1892836],[44.504199,40.1914144],[44.504336,40.1920173],[44.5043036,40.192078],[44.5043541,40.1923126],[44.5039765,40.1923481],[44.5040476,40.192843],[44.5042577,40.1926731],[44.5042632,40.193033],[44.5046671,40.1929957],[44.5049184,40.1932216],[44.5051331,40.1935564],[44.5048553,40.1945076],[44.5048481,40.1946859],[44.5048615,40.194815],[44.5050885,40.1951337],[44.5052468,40.1953629],[44.5052555,40.1954515],[44.50525,40.1963293],[44.5050915,40.1971471],[44.5060551,40.1974866],[44.5072262,40.1978678],[44.507904,40.1979364],[44.5091575,40.1980059],[44.5091976,40.1982479],[44.5092469,40.1982449],[44.509268,40.1982436],[44.5095322,40.1982277],[44.5099027,40.1981983],[44.5100769,40.1981897],[44.5101819,40.1982139],[44.5103603,40.1983508],[44.5110904,40.1979828],[44.5111278,40.1979503],[44.5115912,40.197548],[44.5123306,40.1969315],[44.5135768,40.195838],[44.5142172,40.1952759],[44.5146982,40.1955651],[44.5147076,40.1956421],[44.5165095,40.1955858],[44.5166404,40.1957731],[44.5177101,40.1968704],[44.5188859,40.1981099],[44.5195612,40.1988211],[44.5195729,40.1988334],[44.5196397,40.1989037],[44.5198288,40.1991062],[44.5201279,40.1994292],[44.5202524,40.1995584],[44.5206603,40.1999885],[44.5215853,40.2009589],[44.5219148,40.2013062],[44.5221097,40.2015108],[44.5222589,40.2016676],[44.5227138,40.2022624],[44.5233786,40.2029646],[44.5237241,40.2033332],[44.5243142,40.2039284],[44.5250733,40.2047059],[44.5257489,40.2053998],[44.5261732,40.205839],[44.5266716,40.2063709],[44.5270207,40.2067268],[44.5276917,40.2074305],[44.5279016,40.2076751],[44.5288014,40.2086133],[44.5297593,40.2094757],[44.5298491,40.2095656],[44.5304862,40.2102269],[44.5304048,40.210285],[44.5310032,40.2109683],[44.5311695,40.211263],[44.5312505,40.2114655],[44.5313233,40.2117413],[44.5314144,40.2121365],[44.5313973,40.2124582],[44.5314099,40.2129286],[44.5314149,40.2133104],[44.5314189,40.2136104],[44.531422,40.214164],[44.5314175,40.2155089],[44.5314189,40.2169049],[44.5314287,40.2178189],[44.5314291,40.2182859],[44.5314412,40.2186789],[44.5314402,40.2187385],[44.5314396,40.2187787],[44.5314438,40.2192313],[44.5314497,40.2199361],[44.5314509,40.2200851],[44.53146,40.2211063],[44.5314032,40.2226624],[44.5314165,40.2230165],[44.5315524,40.2236759],[44.531753,40.2240469],[44.5319146,40.2243457],[44.5323609,40.2249072],[44.5324413,40.2249844],[44.5328479,40.2253027],[44.533449,40.2256211],[44.53626,40.22711],[44.5379737,40.2280177],[44.5389225,40.2285203],[44.5396823,40.2289227],[44.5405806,40.2293736],[44.5421878,40.2301803],[44.5434476,40.2308126],[44.543997,40.2310884],[44.5454183,40.2318017],[44.5475603,40.2326367],[44.5483286,40.2329362],[44.5487512,40.233101],[44.5499165,40.2335553],[44.551142,40.2339071],[44.5515495,40.2340126],[44.5535136,40.2343529],[44.5546675,40.2345924],[44.5564894,40.2350498],[44.5573591,40.2352681],[44.5583485,40.2355497],[44.5585388,40.2356225],[44.5589894,40.2358093],[44.5596625,40.2361065],[44.5642151,40.238118],[44.5612863,40.2386832],[44.5625173,40.2402242],[44.5637873,40.2414982],[44.5632322,40.2417737],[44.5625874,40.2414801],[44.5618912,40.240925],[44.5609207,40.2400215],[44.5602466,40.239753],[44.5597259,40.2393008],[44.5592052,40.2388486],[44.5585472,40.2384152],[44.5578951,40.2381693],[44.5571549,40.2381741],[44.55615,40.238046],[44.5548435,40.238094],[44.5535292,40.2374786],[44.5512924,40.2371396],[44.5498752,40.2373437],[44.5491338,40.2367932],[44.5480815,40.2364553],[44.5466347,40.2361178],[44.5449354,40.239279],[44.5442354,40.2404973],[44.5426427,40.240677],[44.5419982,40.2404952],[44.5413406,40.2404322],[44.5405369,40.2403168],[44.5400759,40.2401042],[44.5400762,40.2399688],[44.5398518,40.2398103],[44.5393472,40.2397419],[44.5388855,40.2397528],[44.5380257,40.2390125],[44.5373673,40.2387165],[44.5357601,40.2387295],[44.5354951,40.2385148],[44.5355505,40.2378445],[44.5353358,40.2376938],[44.5348377,40.2376352],[44.5343523,40.2373287],[44.5338115,40.2367713],[44.53371,40.236511],[44.5336444,40.2361322],[44.5331764,40.2358554],[44.5324171,40.2355006],[44.5321714,40.2353341],[44.5315562,40.2347906],[44.5310783,40.2344606],[44.5304561,40.2342092],[44.5293748,40.2336827],[44.528903,40.2331741],[44.5284311,40.2326654],[44.5277831,40.2322217],[44.5273571,40.2322834],[44.527017,40.2324676],[44.5266223,40.232719],[44.5263188,40.232903],[44.5261315,40.2329149],[44.5256323,40.2327778],[44.5253463,40.2323954],[44.5251662,40.2319151],[44.5248086,40.2315024],[44.5246261,40.2309532],[44.5244976,40.230753],[44.5241731,40.2303618],[44.5235888,40.2300911],[44.5230467,40.2297823],[44.5225592,40.2294179],[44.5220008,40.2287411],[44.5216591,40.2284578],[44.5213434,40.2283712],[44.5211586,40.2283885],[44.520992,40.2285032],[44.5205782,40.2288193],[44.5198265,40.2290378],[44.5182351,40.2294838],[44.5176195,40.2297382],[44.5174615,40.2299307],[44.5170111,40.2301108],[44.5165448,40.2301407],[44.5156814,40.2297775],[44.5148369,40.2297603],[44.5137935,40.2295787],[44.5132749,40.2292288],[44.5129258,40.2283918],[44.5125196,40.2269029],[44.5127196,40.2265997],[44.512758,40.2259752],[44.5133397,40.2248793],[44.5136403,40.2244843],[44.5137276,40.2237063],[44.5130313,40.2230373],[44.5113169,40.2217811],[44.5099591,40.222088],[44.5089116,40.221981],[44.5081765,40.2214842],[44.5068159,40.2199119],[44.5064419,40.2184211],[44.5046881,40.2170046],[44.5036558,40.2163016],[44.4999878,40.2139836],[44.4981804,40.2131423],[44.4970298,40.2133217],[44.4950533,40.2121208],[44.4945577,40.2104691],[44.4941906,40.2092455],[44.4915555,40.2085277],[44.4905141,40.2080644],[44.4899831,40.2074853],[44.4910254,40.2061008],[44.4909269,40.2054385],[44.4886416,40.2045781],[44.4875969,40.2036168],[44.4867186,40.2028801],[44.4844648,40.2017978],[44.4839461,40.2010969],[44.4837293,40.2006268],[44.4832591,40.1998116],[44.483211,40.1990505],[44.4844869,40.1973362],[44.4836487,40.1958258],[44.4817023,40.1946594],[44.4811921,40.1942737],[44.4809994,40.1938813]]]]},"properties":{"slug":"arabkir","kind":"CITY_DISTRICT","city":"Yerevan","marz":"Yerevan","osmType":"relation","osmId":13404297,"nameHy":"Արաբկիր","nameRu":"Арабкир","nameEn":"Arabkir"}},{"type":"Feature","geometry":{"type":"MultiPolygon","coordinates":[[[[44.3948323,40.2173076],[44.3957164,40.2169293],[44.398584,40.2158079],[44.4011342,40.2147408],[44.4021078,40.2140208],[44.4028385,40.213201],[44.4030957,40.212876],[44.403275,40.2125402],[44.4033267,40.2120844],[44.4031872,40.2086123],[44.4031922,40.2078513],[44.4033529,40.2071768],[44.4040498,40.205914],[44.4047091,40.2037547],[44.4052339,40.2021034],[44.4060057,40.2006316],[44.4061388,40.200364],[44.4064693,40.200075],[44.4066498,40.1999858],[44.4072013,40.1998115],[44.4070681,40.1995984],[44.4070652,40.1995562],[44.4074103,40.1991325],[44.4085171,40.1973008],[44.4089722,40.1966034],[44.4089915,40.1965721],[44.4094606,40.1963748],[44.4102421,40.1963604],[44.4102702,40.1960697],[44.4127795,40.1961108],[44.4129323,40.1960645],[44.4133622,40.1959342],[44.4140054,40.195349],[44.4148879,40.1947054],[44.4152033,40.1945459],[44.4156894,40.19459],[44.416075,40.1948123],[44.4169816,40.1957243],[44.4186482,40.1960542],[44.4189219,40.1962284],[44.4192672,40.1964603],[44.4200197,40.1968999],[44.4201697,40.1969126],[44.4203928,40.196664],[44.4208163,40.1961316],[44.4214619,40.1953198],[44.4219302,40.1947425],[44.4225684,40.1939539],[44.4228778,40.1935645],[44.4232322,40.1930961],[44.4232759,40.1930166],[44.4233145,40.1925642],[44.4233084,40.191883],[44.423317,40.1913044],[44.4233262,40.1910928],[44.4233798,40.1909837],[44.4237209,40.1907554],[44.4238511,40.1906785],[44.4239885,40.1906382],[44.4241622,40.1906049],[44.4249893,40.1906662],[44.4257141,40.190117],[44.426239,40.189623],[44.428836,40.1896584],[44.4292548,40.1898236],[44.4299015,40.1896382],[44.4302299,40.1891691],[44.4307185,40.1887661],[44.431159,40.1883035],[44.4315205,40.1879775],[44.4322186,40.1873009],[44.4324274,40.1876068],[44.4325629,40.1874699],[44.4335135,40.1868686],[44.4345379,40.1863178],[44.4358613,40.1856196],[44.4364502,40.1853723],[44.4368029,40.1853083],[44.4374249,40.1853858],[44.438714,40.1859146],[44.4391399,40.1860721],[44.4397596,40.1863188],[44.4405394,40.1863754],[44.443031,40.186305],[44.4449122,40.1862413],[44.4452881,40.1872486],[44.44833,40.1875169],[44.4484893,40.1883587],[44.4506897,40.1880399],[44.4508418,40.1876444],[44.451655,40.1876443],[44.4519098,40.1878593],[44.4523592,40.1878176],[44.4558404,40.1875699],[44.4558606,40.1875626],[44.4560568,40.1874915],[44.4561242,40.1875724],[44.4579445,40.1877871],[44.4596657,40.187759],[44.4602865,40.1877314],[44.4619488,40.1876332],[44.461981,40.1880944],[44.4619898,40.1881628],[44.4621011,40.1890253],[44.4621052,40.1890569],[44.462143,40.1894806],[44.4621467,40.1895223],[44.4622178,40.1900247],[44.4622668,40.1902716],[44.4623214,40.1904281],[44.4623869,40.1904662],[44.462558,40.1905066],[44.4681202,40.1909209],[44.4735368,40.1912817],[44.4738187,40.191194],[44.4740042,40.1910268],[44.4757279,40.1894657],[44.4755936,40.1890007],[44.4756162,40.1886639],[44.4755653,40.188479],[44.4754535,40.1880223],[44.4753285,40.1878158],[44.475212,40.1876486],[44.4753257,40.187556],[44.4754367,40.1874593],[44.4757577,40.187573],[44.4760225,40.1876026],[44.476205,40.1875647],[44.4764134,40.1874838],[44.476824,40.1873991],[44.4769819,40.187409],[44.4771921,40.1874676],[44.4774331,40.1876643],[44.4775094,40.1877794],[44.4774836,40.1881044],[44.4774819,40.188206],[44.4776225,40.1882787],[44.4782503,40.1881336],[44.4785766,40.1880148],[44.4788487,40.1878278],[44.4791134,40.1874745],[44.4791876,40.1872376],[44.4794926,40.187281],[44.479402,40.1877012],[44.4793569,40.1880994],[44.4792561,40.1888146],[44.4793877,40.1894574],[44.4794821,40.1895831],[44.4804462,40.1902063],[44.482399,40.1913424],[44.4825854,40.1914508],[44.4819057,40.1923405],[44.4812307,40.1930505],[44.4809994,40.1938813],[44.4811921,40.1942737],[44.4817023,40.1946594],[44.4836487,40.1958258],[44.4844869,40.1973362],[44.483211,40.1990505],[44.4832591,40.1998116],[44.4837293,40.2006268],[44.4839461,40.2010969],[44.4844648,40.2017978],[44.4867186,40.2028801],[44.4875969,40.2036168],[44.4886416,40.2045781],[44.4909269,40.2054385],[44.4910254,40.2061008],[44.4899831,40.2074853],[44.4905141,40.2080644],[44.4893611,40.2084872],[44.4886926,40.2086356],[44.4883195,40.208661],[44.4875737,40.2090801],[44.4869137,40.2094171],[44.4861196,40.2096395],[44.4838543,40.2101187],[44.4822006,40.2104605],[44.4811264,40.2099688],[44.4806325,40.2099034],[44.4807308,40.2104943],[44.4807464,40.2106268],[44.4807051,40.2108617],[44.4806032,40.2109885],[44.4804566,40.2110935],[44.4796884,40.2115854],[44.4789591,40.211952],[44.4765816,40.2130032],[44.4753676,40.2136035],[44.4738004,40.2142572],[44.4714243,40.2152486],[44.4705511,40.2155988],[44.4685757,40.2164096],[44.4677454,40.2167452],[44.467865,40.2169543],[44.4681862,40.2170229],[44.468385,40.2171125],[44.4685665,40.2172387],[44.4688111,40.2175804],[44.4687803,40.2177749],[44.4687158,40.2179443],[44.4683558,40.2181892],[44.4677198,40.2184612],[44.4670555,40.2185385],[44.4663588,40.2183129],[44.4660601,40.2182055],[44.4657626,40.2180017],[44.4656655,40.2179181],[44.4631791,40.218925],[44.4622861,40.2192896],[44.4597555,40.2202883],[44.4579107,40.221068],[44.4561048,40.2218848],[44.4554737,40.2222893],[44.4543213,40.2230733],[44.4525041,40.2244113],[44.4477961,40.2278671],[44.4464399,40.2289307],[44.4447446,40.2301858],[44.4395893,40.2340315],[44.4387427,40.2328536],[44.4381608,40.2321017],[44.4377172,40.2315852],[44.4372623,40.2310762],[44.4376408,40.2306421],[44.4376766,40.2302777],[44.4376187,40.2300476],[44.4365819,40.2294171],[44.4355366,40.2296676],[44.4328355,40.2295242],[44.4326742,40.2286848],[44.4320295,40.2289194],[44.4308748,40.2291924],[44.4224181,40.2271144],[44.4205813,40.2271589],[44.4200316,40.2272267],[44.4186215,40.2276451],[44.4180014,40.2281482],[44.4153213,40.2288392],[44.4128255,40.2266886],[44.4134203,40.2261672],[44.4130183,40.2255481],[44.4138006,40.225194],[44.4131987,40.2244956],[44.4141909,40.2214822],[44.4138903,40.2213516],[44.4113549,40.2233327],[44.4106899,40.2239444],[44.4097864,40.224441],[44.408775,40.2247551],[44.4074247,40.2248156],[44.4059592,40.2249528],[44.4046293,40.2251721],[44.4035749,40.2257352],[44.3975934,40.2252007],[44.3972552,40.2248021],[44.3975514,40.2244851],[44.3965286,40.2217854],[44.3948323,40.2173076]]]]},"properties":{"slug":"ajapnyak","kind":"CITY_DISTRICT","city":"Yerevan","marz":"Yerevan","osmType":"relation","osmId":13404299,"nameHy":"Աջափնյակ","nameRu":"Ачапняк","nameEn":"Ajapnyak"}},{"type":"Feature","geometry":{"type":"MultiPolygon","coordinates":[[[[44.5471557,40.2170648],[44.5476743,40.2165261],[44.5483149,40.2163665],[44.5492609,40.2164184],[44.550352,40.2139892],[44.5518921,40.2104804],[44.5519355,40.2082122],[44.5522167,40.2074661],[44.5533021,40.2063433],[44.5534984,40.205833],[44.5542611,40.2051326],[44.554357,40.2050416],[44.5554966,40.2053237],[44.5565657,40.2056276],[44.5569858,40.205747],[44.5599742,40.2067839],[44.5600273,40.2066961],[44.5606673,40.2069359],[44.5613114,40.2069907],[44.5626559,40.2070538],[44.5627779,40.207107],[44.5637273,40.2075193],[44.5640443,40.2076568],[44.5647345,40.2079697],[44.565603,40.208334],[44.5662912,40.2086219],[44.56689,40.2088742],[44.5674511,40.2091015],[44.5686592,40.2096507],[44.5692334,40.2098462],[44.5697404,40.2099829],[44.5715281,40.209437],[44.5719844,40.2094462],[44.5720755,40.2092221],[44.5721767,40.20906],[44.5723458,40.2089337],[44.5732088,40.2092709],[44.5721674,40.2078674],[44.572992,40.2067503],[44.5749854,40.2069891],[44.5758858,40.2070896],[44.5763912,40.2070607],[44.5769971,40.2069102],[44.5774727,40.2066683],[44.5778318,40.2064526],[44.5789158,40.205763],[44.5800236,40.2062756],[44.5801293,40.206351],[44.5802875,40.206437],[44.5821888,40.2071341],[44.5851338,40.2081169],[44.5867642,40.2087539],[44.5873971,40.2089093],[44.5865945,40.209546],[44.5858196,40.2102094],[44.5836524,40.2126314],[44.5837979,40.2127887],[44.5839486,40.2129317],[44.5846662,40.213503],[44.585176,40.2138981],[44.5855791,40.2143152],[44.5861059,40.2151886],[44.5863244,40.2155243],[44.5866546,40.2159597],[44.5869073,40.2161794],[44.5872295,40.2163969],[44.5876728,40.2166661],[44.5879692,40.2169466],[44.5880709,40.2171089],[44.5879621,40.2173377],[44.5878414,40.2175341],[44.5877747,40.2176036],[44.5877271,40.2176667],[44.5876787,40.2177309],[44.5876475,40.2179474],[44.5875904,40.2182151],[44.5875474,40.218589],[44.5872308,40.2192259],[44.5872871,40.2201306],[44.5873018,40.2206526],[44.5872991,40.221306],[44.5867514,40.2211278],[44.5858605,40.2212095],[44.5848536,40.2211176],[44.5845665,40.2210917],[44.5843633,40.2207361],[44.5836929,40.220676],[44.5832717,40.2204895],[44.5831332,40.2206033],[44.5823574,40.2207863],[44.5763292,40.2204844],[44.5761351,40.2213042],[44.5755229,40.2237277],[44.5754435,40.2238669],[44.5754291,40.2241286],[44.5753081,40.2246398],[44.5751099,40.2252953],[44.5744957,40.2263756],[44.5743342,40.2266117],[44.5742164,40.2267915],[44.5739673,40.2269553],[44.5732381,40.2272299],[44.570212,40.2282102],[44.5675805,40.2271671],[44.5659247,40.2291138],[44.5649145,40.2301884],[44.5647423,40.2302516],[44.5643246,40.2304045],[44.5631678,40.2301206],[44.5619234,40.2308138],[44.5611707,40.2320732],[44.5601234,40.2326712],[44.5597472,40.2328125],[44.5593606,40.2329183],[44.5586701,40.23305],[44.5587439,40.2331209],[44.5600407,40.2344959],[44.5603684,40.2347879],[44.5614467,40.2357188],[44.5619593,40.2362799],[44.5621895,40.2365039],[44.563002,40.2367131],[44.5644396,40.2371513],[44.5649156,40.2373712],[44.5650136,40.2375422],[44.5650624,40.2376272],[44.5650534,40.2378468],[44.5649937,40.2379302],[44.5648373,40.2380348],[44.5646323,40.2380691],[44.5642151,40.238118],[44.5596625,40.2361065],[44.5592617,40.2355007],[44.5587635,40.2348761],[44.5579983,40.2341554],[44.5571505,40.2333773],[44.5568942,40.2331488],[44.5561448,40.2323218],[44.5555915,40.2317719],[44.5541884,40.2303809],[44.5529928,40.2292503],[44.5512627,40.2276141],[44.5497359,40.2259431],[44.5492447,40.2249437],[44.5489228,40.2238574],[44.5494998,40.2213853],[44.549476,40.22119],[44.5494267,40.2207845],[44.5493934,40.2205111],[44.549041,40.2199453],[44.5487047,40.2194054],[44.5485867,40.2192271],[44.5481734,40.2186026],[44.547711,40.2179039],[44.5471557,40.2170648]]]]},"properties":{"slug":"avan","kind":"CITY_DISTRICT","city":"Yerevan","marz":"Yerevan","osmType":"relation","osmId":13404250,"nameHy":"Ավան","nameRu":"Аван","nameEn":"Avan"}},{"type":"Feature","geometry":{"type":"MultiPolygon","coordinates":[[[[44.4525041,40.2244113],[44.4543213,40.2230733],[44.4554737,40.2222893],[44.4561048,40.2218848],[44.4579107,40.221068],[44.4597555,40.2202883],[44.4622861,40.2192896],[44.4631791,40.218925],[44.4656655,40.2179181],[44.4657626,40.2180017],[44.4660601,40.2182055],[44.4663588,40.2183129],[44.4670555,40.2185385],[44.4677198,40.2184612],[44.4683558,40.2181892],[44.4687158,40.2179443],[44.4687803,40.2177749],[44.4688111,40.2175804],[44.4685665,40.2172387],[44.468385,40.2171125],[44.4681862,40.2170229],[44.467865,40.2169543],[44.4677454,40.2167452],[44.4685757,40.2164096],[44.4705511,40.2155988],[44.4714243,40.2152486],[44.4738004,40.2142572],[44.4753676,40.2136035],[44.4765816,40.2130032],[44.4789591,40.211952],[44.4796884,40.2115854],[44.4804566,40.2110935],[44.4806032,40.2109885],[44.4807051,40.2108617],[44.4807464,40.2106268],[44.4807308,40.2104943],[44.4806325,40.2099034],[44.4811264,40.2099688],[44.4822006,40.2104605],[44.4838543,40.2101187],[44.4861196,40.2096395],[44.4869137,40.2094171],[44.4875737,40.2090801],[44.4883195,40.208661],[44.4886926,40.2086356],[44.4893611,40.2084872],[44.4905141,40.2080644],[44.4915555,40.2085277],[44.4941906,40.2092455],[44.4945577,40.2104691],[44.4950533,40.2121208],[44.4970298,40.2133217],[44.4981804,40.2131423],[44.4999878,40.2139836],[44.5036558,40.2163016],[44.5046881,40.2170046],[44.5064419,40.2184211],[44.5068159,40.2199119],[44.5081765,40.2214842],[44.5089116,40.221981],[44.5099591,40.222088],[44.5113169,40.2217811],[44.5130313,40.2230373],[44.5137276,40.2237063],[44.5136403,40.2244843],[44.5133397,40.2248793],[44.512758,40.2259752],[44.5127196,40.2265997],[44.5125196,40.2269029],[44.5093567,40.2271848],[44.5096654,40.2283892],[44.5093046,40.2284997],[44.5061624,40.2294619],[44.5039492,40.230035],[44.5029044,40.2301617],[44.5001324,40.2307954],[44.4990132,40.2292556],[44.4986319,40.228166],[44.5024532,40.2269663],[44.5024299,40.2269341],[44.5015616,40.2257372],[44.498721,40.2272038],[44.4949553,40.2279245],[44.492288,40.2290841],[44.4912829,40.2292165],[44.491025,40.2293297],[44.4907095,40.2296052],[44.4903562,40.2309283],[44.4904607,40.2316589],[44.490481,40.2320882],[44.490299,40.2324185],[44.4900148,40.232741],[44.4894081,40.2330081],[44.4889264,40.2332818],[44.4883924,40.2334066],[44.4877577,40.2333675],[44.4870658,40.2332478],[44.4864649,40.2329646],[44.4860768,40.2324167],[44.4853986,40.2322927],[44.4845622,40.2322729],[44.4840235,40.232055],[44.4836849,40.2292944],[44.4832426,40.2290602],[44.4819533,40.2280478],[44.479923,40.227801],[44.479082,40.2277276],[44.478886,40.2275085],[44.4790826,40.2270805],[44.4796266,40.2265379],[44.4798891,40.2259886],[44.4795409,40.2256834],[44.479083,40.2255567],[44.4783582,40.2250606],[44.4749549,40.2232045],[44.474934,40.2231651],[44.4754249,40.2222259],[44.4755451,40.2219103],[44.475093,40.2213032],[44.4749656,40.220819],[44.4749078,40.220378],[44.4729909,40.2202023],[44.4720795,40.2205096],[44.4703886,40.2212105],[44.4698437,40.2214031],[44.4702998,40.2223836],[44.4681541,40.2229762],[44.4672226,40.2217791],[44.4645423,40.2223158],[44.4637139,40.2233504],[44.4633111,40.2234773],[44.4621599,40.2239735],[44.4620852,40.2238904],[44.4615028,40.223835],[44.46149,40.2238807],[44.4607389,40.2238427],[44.4583623,40.2236608],[44.4581692,40.2238161],[44.4586172,40.2247686],[44.458623,40.2255103],[44.4593182,40.2260811],[44.4597548,40.2265414],[44.4600219,40.2265341],[44.4607031,40.2274941],[44.4596541,40.228376],[44.4591668,40.2290686],[44.4577892,40.2300423],[44.4566166,40.2302788],[44.456404,40.2302278],[44.4558247,40.2298182],[44.455711,40.2297824],[44.4554401,40.2297494],[44.4546477,40.229969],[44.4541599,40.2287548],[44.4533203,40.2266773],[44.4534254,40.2254125],[44.4525041,40.2244113]]]]},"properties":{"slug":"davtashen","kind":"CITY_DISTRICT","city":"Yerevan","marz":"Yerevan","osmType":"relation","osmId":13404298,"nameHy":"Դավթաշեն","nameRu":"Давташен","nameEn":"Davtashen"}},{"type":"Feature","geometry":{"type":"MultiPolygon","coordinates":[[[[44.5051248,40.1096519],[44.5054158,40.1092918],[44.5062836,40.1087931],[44.5080962,40.107738],[44.5101342,40.1058499],[44.5129078,40.1054667],[44.5131286,40.1024186],[44.5261721,40.1029121],[44.527064,40.1030233],[44.5285654,40.1034343],[44.5321409,40.1042202],[44.5303946,40.1048418],[44.5311664,40.1061452],[44.5298262,40.1120949],[44.5300103,40.1143852],[44.5339355,40.1183696],[44.5358338,40.118007],[44.5386762,40.1178742],[44.5449618,40.1189212],[44.5535388,40.1177271],[44.5651997,40.1162905],[44.5704075,40.1160169],[44.5773439,40.1156523],[44.5830284,40.1153536],[44.5865903,40.1165515],[44.5890365,40.118094],[44.5904313,40.1195052],[44.5939074,40.1234595],[44.5964046,40.1242029],[44.6000763,40.1254336],[44.6013318,40.1263637],[44.6021042,40.1276926],[44.6047366,40.1368207],[44.6076547,40.1375705],[44.6115907,40.1367666],[44.6152543,40.1374414],[44.6161479,40.1379467],[44.6176244,40.137868],[44.6217689,40.1431229],[44.6208241,40.1433453],[44.6203524,40.1433047],[44.6187049,40.143793],[44.6167129,40.1436358],[44.6123832,40.1447737],[44.6115845,40.1453192],[44.608562,40.1463492],[44.6075581,40.146206],[44.606822,40.1463578],[44.6048563,40.1471234],[44.6041503,40.1473149],[44.6037105,40.1476104],[44.6030403,40.1478838],[44.6026988,40.1481332],[44.5993792,40.1572947],[44.5983822,40.1577871],[44.5977991,40.1578937],[44.5972265,40.1573634],[44.5966361,40.157077],[44.5957296,40.156907],[44.5953065,40.1568013],[44.5947119,40.1567051],[44.5939886,40.1567074],[44.592893,40.1568617],[44.5921803,40.1562935],[44.5906037,40.1553001],[44.5902701,40.1547575],[44.5885635,40.1541197],[44.5876314,40.1535546],[44.5867207,40.1531431],[44.586031,40.1531407],[44.5856471,40.1533291],[44.5839636,40.153107],[44.5836482,40.1532271],[44.5826414,40.1532268],[44.5814698,40.1557031],[44.577472,40.1544969],[44.5756443,40.1540737],[44.5720112,40.153117],[44.5701302,40.1529938],[44.5674574,40.1528741],[44.5645765,40.152425],[44.5645296,40.1525703],[44.5671655,40.1548171],[44.5677077,40.1556944],[44.5679467,40.1562605],[44.5681181,40.1569511],[44.5682173,40.1572032],[44.5682316,40.1573563],[44.5682894,40.1575992],[44.5680906,40.1578593],[44.5680438,40.1582375],[44.5680138,40.1584585],[44.5680944,40.1588332],[44.5679293,40.1592617],[44.5680667,40.1596831],[44.5686055,40.1610174],[44.5687025,40.1616387],[44.5687103,40.1616889],[44.5687197,40.1619525],[44.5687216,40.1620078],[44.5686187,40.162484],[44.5687057,40.1627853],[44.5688852,40.163358],[44.5689287,40.1640712],[44.5688024,40.1646675],[44.5689808,40.1650081],[44.5688937,40.1650343],[44.5677384,40.1645768],[44.5669913,40.1643456],[44.5661543,40.1641111],[44.5654939,40.1640334],[44.5650387,40.1640404],[44.5643041,40.1639058],[44.5627716,40.1631762],[44.5623316,40.1629675],[44.5612674,40.1625912],[44.559569,40.1617277],[44.5587315,40.1614169],[44.5577943,40.1610263],[44.5577175,40.1614344],[44.5515895,40.1634432],[44.5492469,40.1640338],[44.5490006,40.1636617],[44.5484334,40.1634649],[44.5468114,40.1636457],[44.5461427,40.1639241],[44.5451022,40.1640497],[44.5447384,40.1644599],[44.5453832,40.1655229],[44.5444802,40.1658049],[44.5445434,40.1660185],[44.5438262,40.1657765],[44.5428052,40.1656023],[44.5417785,40.1656413],[44.541824,40.1659836],[44.5406651,40.1662934],[44.5399619,40.1664814],[44.5392331,40.1666763],[44.5387666,40.166801],[44.5359855,40.1675446],[44.5345683,40.1654653],[44.529742,40.1669073],[44.5269713,40.1677352],[44.5256403,40.1681271],[44.5254842,40.1681795],[44.5254552,40.1681891],[44.5253349,40.168106],[44.5250841,40.1679061],[44.524832,40.1676899],[44.5246992,40.1675802],[44.5246606,40.1675385],[44.5244364,40.1672964],[44.5241373,40.1669223],[44.5239388,40.1666353],[44.5237108,40.1663217],[44.523515,40.1660737],[44.5234319,40.1659415],[44.5231087,40.1654383],[44.5228659,40.1650694],[44.5227037,40.1647875],[44.5224736,40.1643499],[44.5223909,40.1642008],[44.5222608,40.1639916],[44.5221376,40.1637679],[44.5218626,40.1634446],[44.5209603,40.1626192],[44.5209366,40.162583],[44.52071,40.1622375],[44.5206766,40.1621757],[44.5206057,40.1620449],[44.5204754,40.1618042],[44.5203346,40.1615439],[44.5200428,40.1610251],[44.5200309,40.1609642],[44.5199061,40.1607767],[44.5195539,40.1605457],[44.5195253,40.1605293],[44.5189094,40.1601765],[44.5186187,40.160106],[44.5178386,40.1598975],[44.5177172,40.1598649],[44.5176908,40.159858],[44.5174856,40.1598031],[44.5172772,40.1597697],[44.5171658,40.1597482],[44.5164539,40.159647],[44.5156748,40.1597375],[44.5151493,40.159895],[44.5144859,40.1602421],[44.5137201,40.1614219],[44.5134095,40.1619157],[44.5130786,40.1624416],[44.5129412,40.1626599],[44.5127797,40.1629167],[44.5127105,40.1630266],[44.5125669,40.1630321],[44.5117244,40.1630644],[44.5110033,40.163092],[44.5100186,40.1631195],[44.5092566,40.1631407],[44.5081949,40.1631536],[44.5072418,40.152453],[44.5072765,40.1516808],[44.5073028,40.1510945],[44.5073115,40.1509018],[44.5073331,40.1504198],[44.5073564,40.1499004],[44.5073732,40.149527],[44.5074046,40.1480995],[44.5073983,40.1462531],[44.5073871,40.1429511],[44.5073836,40.1419172],[44.5073772,40.1400446],[44.5073352,40.1276624],[44.5069746,40.1266415],[44.5069403,40.1264652],[44.5065847,40.1249407],[44.5064422,40.1246776],[44.5073011,40.1244449],[44.5076853,40.1244104],[44.5079631,40.1244272],[44.5088882,40.1245174],[44.5091537,40.1245716],[44.5091903,40.1243976],[44.5091852,40.1241592],[44.509055,40.1229353],[44.5089345,40.1217659],[44.5086993,40.1191241],[44.5083978,40.1158662],[44.5082185,40.1137823],[44.5078394,40.1126185],[44.5077369,40.1124553],[44.5066795,40.111602],[44.5064069,40.1113592],[44.5051248,40.1096519]]]]},"properties":{"slug":"erebuni","kind":"CITY_DISTRICT","city":"Yerevan","marz":"Yerevan","osmType":"relation","osmId":13404216,"nameHy":"Էրեբունի","nameRu":"Эребуни","nameEn":"Erebuni"}},{"type":"Feature","geometry":{"type":"MultiPolygon","coordinates":[[[[44.5163867,40.1952854],[44.5163928,40.1950618],[44.5165646,40.1948022],[44.5165745,40.1947904],[44.5167192,40.1946994],[44.5169234,40.1946215],[44.5173376,40.1945734],[44.5177876,40.1944887],[44.5184133,40.1943772],[44.5184238,40.1943748],[44.5190233,40.1942379],[44.5205575,40.1938185],[44.5213759,40.1937168],[44.5219108,40.1937403],[44.5227721,40.1939014],[44.5235861,40.1940938],[44.5255375,40.1944136],[44.5288968,40.1944134],[44.5299483,40.1942905],[44.5304953,40.1941839],[44.5305615,40.1941833],[44.5319677,40.1937419],[44.532591,40.194293],[44.5327622,40.1944533],[44.5338343,40.1954132],[44.5344604,40.1959457],[44.5351414,40.1968634],[44.5373992,40.1970633],[44.5397002,40.1967574],[44.5420904,40.1958959],[44.5439179,40.1964256],[44.544545,40.1964412],[44.54557,40.1967216],[44.5473162,40.1967975],[44.5479359,40.1961261],[44.5493823,40.1975834],[44.5553892,40.2024793],[44.5575486,40.2045533],[44.5592258,40.206134],[44.5595065,40.2063802],[44.5597267,40.2065351],[44.5600273,40.2066961],[44.5599742,40.2067839],[44.5569858,40.205747],[44.5565657,40.2056276],[44.5554966,40.2053237],[44.554357,40.2050416],[44.5542611,40.2051326],[44.5534984,40.205833],[44.5533021,40.2063433],[44.5522167,40.2074661],[44.5519355,40.2082122],[44.5518921,40.2104804],[44.550352,40.2139892],[44.5492609,40.2164184],[44.5483149,40.2163665],[44.5476743,40.2165261],[44.5471557,40.2170648],[44.547711,40.2179039],[44.5481734,40.2186026],[44.5485867,40.2192271],[44.5487047,40.2194054],[44.549041,40.2199453],[44.5493934,40.2205111],[44.5494267,40.2207845],[44.549476,40.22119],[44.5494998,40.2213853],[44.5489228,40.2238574],[44.5492447,40.2249437],[44.5497359,40.2259431],[44.5512627,40.2276141],[44.5529928,40.2292503],[44.5541884,40.2303809],[44.5555915,40.2317719],[44.5561448,40.2323218],[44.5568942,40.2331488],[44.5571505,40.2333773],[44.5579983,40.2341554],[44.5587635,40.2348761],[44.5592617,40.2355007],[44.5596625,40.2361065],[44.5589894,40.2358093],[44.5585388,40.2356225],[44.5583485,40.2355497],[44.5573591,40.2352681],[44.5564894,40.2350498],[44.5546675,40.2345924],[44.5535136,40.2343529],[44.5515495,40.2340126],[44.551142,40.2339071],[44.5499165,40.2335553],[44.5487512,40.233101],[44.5483286,40.2329362],[44.5475603,40.2326367],[44.5454183,40.2318017],[44.543997,40.2310884],[44.5434476,40.2308126],[44.5421878,40.2301803],[44.5405806,40.2293736],[44.5396823,40.2289227],[44.5389225,40.2285203],[44.5379737,40.2280177],[44.53626,40.22711],[44.533449,40.2256211],[44.5328479,40.2253027],[44.5324413,40.2249844],[44.5323609,40.2249072],[44.5319146,40.2243457],[44.531753,40.2240469],[44.5315524,40.2236759],[44.5314165,40.2230165],[44.5314032,40.2226624],[44.53146,40.2211063],[44.5314509,40.2200851],[44.5314497,40.2199361],[44.5314438,40.2192313],[44.5314396,40.2187787],[44.5314402,40.2187385],[44.5314412,40.2186789],[44.5314291,40.2182859],[44.5314287,40.2178189],[44.5314189,40.2169049],[44.5314175,40.2155089],[44.531422,40.214164],[44.5314189,40.2136104],[44.5314149,40.2133104],[44.5314099,40.2129286],[44.5313973,40.2124582],[44.5314144,40.2121365],[44.5313233,40.2117413],[44.5312505,40.2114655],[44.5311695,40.211263],[44.5310032,40.2109683],[44.5304048,40.210285],[44.5304862,40.2102269],[44.5298491,40.2095656],[44.5297593,40.2094757],[44.5288014,40.2086133],[44.5279016,40.2076751],[44.5276917,40.2074305],[44.5270207,40.2067268],[44.5266716,40.2063709],[44.5261732,40.205839],[44.5257489,40.2053998],[44.5250733,40.2047059],[44.5243142,40.2039284],[44.5237241,40.2033332],[44.5233786,40.2029646],[44.5227138,40.2022624],[44.5222589,40.2016676],[44.5221097,40.2015108],[44.5219148,40.2013062],[44.5215853,40.2009589],[44.5206603,40.1999885],[44.5202524,40.1995584],[44.5201279,40.1994292],[44.5198288,40.1991062],[44.5196397,40.1989037],[44.5195729,40.1988334],[44.5195612,40.1988211],[44.5188859,40.1981099],[44.5177101,40.1968704],[44.5166404,40.1957731],[44.5165095,40.1955858],[44.5164424,40.1954074],[44.5163867,40.1952854]]]]},"properties":{"slug":"kanaker-zeytun","kind":"CITY_DISTRICT","city":"Yerevan","marz":"Yerevan","osmType":"relation","osmId":13404296,"nameHy":"Քանաքեռ-Զեյթուն","nameRu":"Канакер-Зейтун","nameEn":"Qanaqer-Zeytun"}},{"type":"Feature","geometry":{"type":"MultiPolygon","coordinates":[[[[44.362107,40.1467039],[44.3642438,40.1467227],[44.3666532,40.1467424],[44.3669306,40.14605],[44.367161,40.1454449],[44.3677803,40.1454469],[44.3698198,40.1454686],[44.3722428,40.145482],[44.3746347,40.1454853],[44.3767376,40.1455178],[44.3772762,40.145449],[44.3779275,40.1454791],[44.3781182,40.1455024],[44.3783953,40.1455135],[44.3788302,40.1454782],[44.378922,40.1454579],[44.3793883,40.145355],[44.3912691,40.1454608],[44.3913658,40.1455503],[44.3944367,40.1455724],[44.3960827,40.1455747],[44.3990644,40.1455788],[44.401511,40.1455845],[44.406801,40.145588],[44.4078989,40.1455928],[44.4109742,40.1456063],[44.4111651,40.1453605],[44.4125098,40.144746],[44.4140041,40.1455492],[44.4209623,40.1456586],[44.4234895,40.1456741],[44.4238587,40.1459625],[44.4238631,40.1462992],[44.4245541,40.1464204],[44.4249027,40.1467108],[44.4251864,40.1468258],[44.4258639,40.1470988],[44.4259037,40.1473543],[44.4259275,40.147691],[44.4257923,40.1478394],[44.4253364,40.1482877],[44.4245725,40.1484124],[44.4219517,40.1486375],[44.4217775,40.1486022],[44.4218363,40.1502699],[44.4190082,40.1503405],[44.4189624,40.1515637],[44.4187428,40.1536237],[44.4191425,40.1549587],[44.4208796,40.1549843],[44.4209048,40.1551126],[44.4208984,40.1553789],[44.4205654,40.1554071],[44.4200104,40.1555867],[44.4194601,40.1559733],[44.4189091,40.1565053],[44.418618,40.1578761],[44.4155004,40.1574793],[44.4137942,40.1568978],[44.4119029,40.1568082],[44.4112284,40.1569818],[44.4097696,40.1568025],[44.4096287,40.1551623],[44.4076311,40.1548513],[44.4072511,40.1552603],[44.4062413,40.1552234],[44.4051373,40.1550201],[44.4049824,40.1549186],[44.4048976,40.1544826],[44.4047324,40.1540474],[44.4030816,40.1538258],[44.402029,40.1543196],[44.4019113,40.154605],[44.401474,40.154602],[44.4014623,40.1551874],[44.4014578,40.1559835],[44.4014598,40.156675],[44.4011516,40.1566649],[44.3987488,40.1543797],[44.3985271,40.1544699],[44.3981208,40.1545414],[44.3978449,40.1545681],[44.3974956,40.1545636],[44.3971628,40.1545269],[44.3967415,40.1544414],[44.3961847,40.154258],[44.3957546,40.1540151],[44.3953477,40.1536855],[44.3949403,40.1531986],[44.3946502,40.1524292],[44.3946254,40.1520872],[44.3941031,40.152089],[44.3936374,40.1509292],[44.3927479,40.1503171],[44.3867371,40.1502861],[44.3831954,40.1502679],[44.3807065,40.1486199],[44.3673884,40.1484904],[44.3672869,40.1484415],[44.3657385,40.1474723],[44.3653536,40.1474732],[44.3621901,40.1474348],[44.362119,40.1473777],[44.3621076,40.1470954],[44.362107,40.1467039]]],[[[44.4029328,40.1935903],[44.4037223,40.1928967],[44.4043854,40.1923049],[44.4046935,40.1924923],[44.4050167,40.1922022],[44.4046275,40.1919654],[44.4052778,40.1913292],[44.4066789,40.1912225],[44.4062224,40.1908942],[44.4042378,40.1899681],[44.4077768,40.1852577],[44.4076013,40.182651],[44.4073183,40.1821385],[44.4062644,40.175743],[44.4062786,40.1747537],[44.4072673,40.1735883],[44.4084354,40.1723657],[44.409302,40.1717135],[44.4100305,40.1712031],[44.4109863,40.1702925],[44.4111046,40.1699981],[44.4132643,40.1704229],[44.4150348,40.169986],[44.4154833,40.1697401],[44.4158055,40.1691742],[44.4161083,40.1688277],[44.4165869,40.1686102],[44.4171362,40.1687444],[44.4172719,40.1687311],[44.4178278,40.1685505],[44.418277,40.1678252],[44.4185796,40.1674731],[44.4195876,40.1670747],[44.4202792,40.1671743],[44.4205025,40.1675769],[44.4206953,40.1678374],[44.420804,40.1679084],[44.4209218,40.1679731],[44.4212901,40.1680907],[44.4218967,40.1681492],[44.4237917,40.1684174],[44.4239274,40.168482],[44.4249618,40.169194],[44.4259035,40.1689993],[44.4271463,40.1693869],[44.4278424,40.1687007],[44.4283434,40.1686463],[44.430276,40.1675188],[44.4301504,40.1656461],[44.4301348,40.1641426],[44.4296905,40.1634706],[44.4299346,40.1626931],[44.430355,40.162373],[44.4302751,40.1619418],[44.429676,40.1617868],[44.4292133,40.1613898],[44.4290635,40.1609038],[44.4290135,40.1599247],[44.430153,40.1594718],[44.4315342,40.1594823],[44.4317855,40.1591172],[44.4323541,40.1591356],[44.4329228,40.1591539],[44.4331382,40.1591157],[44.4335913,40.1590252],[44.4338411,40.1591116],[44.4339485,40.1591158],[44.4344228,40.1590104],[44.4345766,40.1589869],[44.4347102,40.1589945],[44.4348524,40.1590422],[44.4350961,40.1591749],[44.4356043,40.1595312],[44.4364081,40.1578807],[44.4367367,40.1579115],[44.436961,40.1579177],[44.4371038,40.1578602],[44.4373017,40.1578024],[44.4374573,40.1584439],[44.4373,40.1586881],[44.4384019,40.159107],[44.4388062,40.159277],[44.439556,40.1595769],[44.4402339,40.1597794],[44.4406928,40.1598431],[44.4411779,40.159831],[44.4420268,40.1597654],[44.4422057,40.1597742],[44.4424706,40.1597189],[44.4426241,40.1595698],[44.4430083,40.1591551],[44.4433996,40.1587586],[44.4435407,40.1585938],[44.4435758,40.1584711],[44.4435461,40.1582993],[44.4431904,40.1581043],[44.4430279,40.1579318],[44.4429315,40.1577713],[44.442976,40.1574854],[44.4430534,40.1573663],[44.443263,40.1569944],[44.4437738,40.1559123],[44.4439413,40.1555764],[44.4439651,40.1554715],[44.4443944,40.1553547],[44.4447435,40.1554935],[44.4448755,40.1551645],[44.4456503,40.1556423],[44.4467244,40.1564049],[44.4473163,40.1565865],[44.4478295,40.1566516],[44.4483323,40.1566459],[44.4492067,40.1564596],[44.4508379,40.1554224],[44.4512953,40.1553053],[44.4517555,40.1552892],[44.4522971,40.155402],[44.4531994,40.1556381],[44.4539222,40.1557056],[44.45441,40.1556516],[44.4546527,40.1554542],[44.4551314,40.1546878],[44.4558732,40.1538549],[44.4564495,40.1529487],[44.4568328,40.1524157],[44.4580023,40.1517559],[44.4598084,40.1512389],[44.4611062,40.1508572],[44.4615607,40.1505976],[44.46211,40.1499975],[44.4628571,40.1495303],[44.4640624,40.1491947],[44.4650389,40.1490262],[44.4658488,40.1490438],[44.4668961,40.1492027],[44.4679717,40.1496106],[44.4688306,40.1495359],[44.4691865,40.1495854],[44.4693673,40.149665],[44.4694141,40.1498721],[44.4693,40.1504983],[44.4692566,40.1508005],[44.4692559,40.1516454],[44.469437,40.1521716],[44.4702946,40.152645],[44.4718671,40.1539163],[44.4721779,40.1544089],[44.4721845,40.1548294],[44.4721021,40.1551284],[44.4717484,40.1556485],[44.471726,40.1559327],[44.4719352,40.1564464],[44.4722514,40.1570567],[44.4708428,40.1574012],[44.4701062,40.1576898],[44.4692325,40.158395],[44.4689173,40.1588666],[44.4690001,40.1592261],[44.4694538,40.1601124],[44.4698037,40.1604066],[44.4707587,40.1608436],[44.4746313,40.1626087],[44.4756973,40.1630783],[44.4777704,40.163984],[44.4777285,40.1640807],[44.4789943,40.1646502],[44.4834293,40.166718],[44.4837162,40.1667935],[44.4841549,40.1670394],[44.4859616,40.1680894],[44.4861553,40.1678775],[44.4865432,40.1676982],[44.4868285,40.1676347],[44.4871015,40.1676313],[44.4873611,40.1677902],[44.4874608,40.1680833],[44.4873262,40.1687809],[44.4872223,40.1688871],[44.4868661,40.1692687],[44.486765,40.169242],[44.4859273,40.1704778],[44.4837442,40.1734128],[44.4838398,40.1735101],[44.4843058,40.174037],[44.4841209,40.1742098],[44.4840795,40.1742875],[44.4839826,40.1747872],[44.4839545,40.1750598],[44.483962,40.1752814],[44.4840159,40.1756296],[44.4841742,40.175727],[44.4843358,40.1761311],[44.4857352,40.176468],[44.4865865,40.1771418],[44.4861988,40.1786073],[44.4856026,40.1789712],[44.4866801,40.1802942],[44.487368,40.1810371],[44.4867186,40.1813816],[44.4863675,40.1815197],[44.4859696,40.1815744],[44.4853988,40.1814814],[44.4845069,40.1811428],[44.4841875,40.1810546],[44.4838469,40.1809935],[44.4834717,40.1809813],[44.483266,40.1810486],[44.4830712,40.1811042],[44.4827642,40.1812921],[44.4824111,40.1815129],[44.481394,40.1823477],[44.4809921,40.1827813],[44.4805142,40.1832857],[44.4802275,40.183828],[44.4797743,40.1849395],[44.4791876,40.1872376],[44.4791134,40.1874745],[44.4788487,40.1878278],[44.4785766,40.1880148],[44.4782503,40.1881336],[44.4776225,40.1882787],[44.4774819,40.188206],[44.4774836,40.1881044],[44.4775094,40.1877794],[44.4774331,40.1876643],[44.4771921,40.1874676],[44.4769819,40.187409],[44.476824,40.1873991],[44.4764134,40.1874838],[44.476205,40.1875647],[44.4760225,40.1876026],[44.4757577,40.187573],[44.4754367,40.1874593],[44.4753257,40.187556],[44.475212,40.1876486],[44.4753285,40.1878158],[44.4754535,40.1880223],[44.4755653,40.188479],[44.4756162,40.1886639],[44.4755936,40.1890007],[44.4757279,40.1894657],[44.4740042,40.1910268],[44.4738187,40.191194],[44.4735368,40.1912817],[44.4681202,40.1909209],[44.462558,40.1905066],[44.4623869,40.1904662],[44.4623214,40.1904281],[44.4622668,40.1902716],[44.4622178,40.1900247],[44.4621467,40.1895223],[44.462143,40.1894806],[44.4621052,40.1890569],[44.4621011,40.1890253],[44.4619898,40.1881628],[44.461981,40.1880944],[44.4619488,40.1876332],[44.4602865,40.1877314],[44.4596657,40.187759],[44.4579445,40.1877871],[44.4561242,40.1875724],[44.4560568,40.1874915],[44.4558606,40.1875626],[44.4558404,40.1875699],[44.4523592,40.1878176],[44.4519098,40.1878593],[44.451655,40.1876443],[44.4508418,40.1876444],[44.4506897,40.1880399],[44.4484893,40.1883587],[44.44833,40.1875169],[44.4452881,40.1872486],[44.4449122,40.1862413],[44.443031,40.186305],[44.4405394,40.1863754],[44.4397596,40.1863188],[44.4391399,40.1860721],[44.438714,40.1859146],[44.4374249,40.1853858],[44.4368029,40.1853083],[44.4364502,40.1853723],[44.4358613,40.1856196],[44.4345379,40.1863178],[44.4335135,40.1868686],[44.4325629,40.1874699],[44.4324274,40.1876068],[44.4322186,40.1873009],[44.4315205,40.1879775],[44.431159,40.1883035],[44.4307185,40.1887661],[44.4302299,40.1891691],[44.4299015,40.1896382],[44.4292548,40.1898236],[44.428836,40.1896584],[44.426239,40.189623],[44.4257141,40.190117],[44.4249893,40.1906662],[44.4241622,40.1906049],[44.4239885,40.1906382],[44.4238511,40.1906785],[44.4237209,40.1907554],[44.4233798,40.1909837],[44.4233262,40.1910928],[44.423317,40.1913044],[44.4233084,40.191883],[44.4233145,40.1925642],[44.4232759,40.1930166],[44.4232322,40.1930961],[44.4228778,40.1935645],[44.4225684,40.1939539],[44.4219302,40.1947425],[44.4214619,40.1953198],[44.4208163,40.1961316],[44.4203928,40.196664],[44.4201697,40.1969126],[44.4200197,40.1968999],[44.4192672,40.1964603],[44.4189219,40.1962284],[44.4186482,40.1960542],[44.4169816,40.1957243],[44.416075,40.1948123],[44.4156894,40.19459],[44.4152033,40.1945459],[44.4148879,40.1947054],[44.4140054,40.195349],[44.4133622,40.1959342],[44.4129323,40.1960645],[44.4127795,40.1961108],[44.4102702,40.1960697],[44.4102514,40.195751],[44.4100405,40.1956212],[44.4098296,40.1955485],[44.4093337,40.1956455],[44.4071617,40.1961125],[44.4069192,40.1961153],[44.4067948,40.1961007],[44.4066746,40.1960723],[44.4058355,40.1956829],[44.4044224,40.1956369],[44.4042967,40.195557],[44.404227,40.1954237],[44.4038779,40.1941483],[44.4038604,40.1941299],[44.4038337,40.1941104],[44.4029328,40.1935903]]]]},"properties":{"slug":"malatia-sebastia","kind":"CITY_DISTRICT","city":"Yerevan","marz":"Yerevan","osmType":"relation","osmId":13404219,"nameHy":"Մալաթիա-Սեբաստիա","nameRu":"Малатия-Себастия","nameEn":"Malatia-Sebastia"}},{"type":"Feature","geometry":{"type":"MultiPolygon","coordinates":[[[[44.5411669,40.1668365],[44.5412214,40.1666399],[44.5413368,40.1664908],[44.5417288,40.1662386],[44.541824,40.1659836],[44.5417785,40.1656413],[44.5428052,40.1656023],[44.5438262,40.1657765],[44.5445434,40.1660185],[44.5444802,40.1658049],[44.5453832,40.1655229],[44.5447384,40.1644599],[44.5451022,40.1640497],[44.5461427,40.1639241],[44.5468114,40.1636457],[44.5484334,40.1634649],[44.5490006,40.1636617],[44.5492469,40.1640338],[44.5515895,40.1634432],[44.5577175,40.1614344],[44.5577943,40.1610263],[44.5587315,40.1614169],[44.559569,40.1617277],[44.5612674,40.1625912],[44.5623316,40.1629675],[44.5627716,40.1631762],[44.5643041,40.1639058],[44.5650387,40.1640404],[44.5654939,40.1640334],[44.5661543,40.1641111],[44.5669913,40.1643456],[44.5677384,40.1645768],[44.5688937,40.1650343],[44.5689808,40.1650081],[44.5694304,40.1647716],[44.5694375,40.1642588],[44.569655,40.1639196],[44.5693113,40.1637059],[44.5702374,40.1626757],[44.5748226,40.1647807],[44.5747995,40.1648122],[44.5734214,40.1666975],[44.5761118,40.1681408],[44.5768763,40.16834],[44.5772475,40.1684306],[44.5774841,40.1685435],[44.5778444,40.1689147],[44.578736,40.1699686],[44.5810953,40.1718494],[44.5825675,40.1729421],[44.5832705,40.1740231],[44.5835868,40.1746391],[44.5839357,40.1749842],[44.5840028,40.1750505],[44.5845477,40.1754389],[44.5849214,40.1756743],[44.585325,40.1757919],[44.5867416,40.1764856],[44.5862017,40.176935],[44.5821566,40.1803014],[44.5819668,40.1807774],[44.5818789,40.1807659],[44.5817252,40.1810309],[44.5821291,40.1811865],[44.5823346,40.1812588],[44.5822074,40.1814518],[44.5821449,40.1817634],[44.5823769,40.1822687],[44.5824642,40.1825726],[44.5815835,40.1828754],[44.5818768,40.1831694],[44.5808296,40.1833196],[44.5801208,40.1834198],[44.5798929,40.1834003],[44.5795949,40.1832769],[44.5795536,40.1832186],[44.5792083,40.1829997],[44.5790108,40.1829622],[44.5788641,40.1830384],[44.578614,40.1834021],[44.5781287,40.1833046],[44.5776609,40.1832978],[44.5771379,40.1833417],[44.5769952,40.1833698],[44.5769099,40.1834068],[44.5768708,40.1834895],[44.5768772,40.1836482],[44.576988,40.1838684],[44.5770889,40.184063],[44.5773412,40.1844733],[44.577564,40.1846272],[44.5780251,40.1849601],[44.5781317,40.1849379],[44.5782817,40.1848052],[44.5785121,40.1847707],[44.5797244,40.1848681],[44.5803235,40.1849496],[44.5808081,40.1852371],[44.5825031,40.1859432],[44.5833267,40.1861121],[44.5848894,40.1874589],[44.5853338,40.1878437],[44.5860824,40.1881667],[44.5866991,40.188432],[44.5875405,40.1888646],[44.5890124,40.1893717],[44.5891743,40.1896509],[44.5894517,40.1896242],[44.5898735,40.1895544],[44.5901169,40.1895165],[44.5902168,40.1895012],[44.590269,40.1894503],[44.5898532,40.1888718],[44.5900611,40.1884674],[44.590178,40.1882573],[44.5904727,40.1876708],[44.5906438,40.1873066],[44.5907477,40.1870151],[44.5907992,40.186723],[44.5909657,40.1866896],[44.5914356,40.1866181],[44.59326,40.1862889],[44.5938435,40.1861401],[44.5940953,40.1861462],[44.5946272,40.1860606],[44.5942818,40.1852736],[44.5942176,40.1851213],[44.5937488,40.1851033],[44.5933347,40.1844321],[44.5933397,40.1844244],[44.5936783,40.1839041],[44.594234,40.1840943],[44.5946719,40.1842636],[44.5949038,40.1843358],[44.5951703,40.1844187],[44.5957747,40.1844848],[44.5958238,40.1844902],[44.5962655,40.1845543],[44.5968973,40.1847192],[44.5969544,40.1847291],[44.5970265,40.184798],[44.5972377,40.1851264],[44.5975357,40.1856091],[44.597541,40.186762],[44.5975719,40.1869483],[44.5974356,40.1879358],[44.5974235,40.1880235],[44.5990487,40.187649],[44.599462,40.1887899],[44.5994683,40.1888074],[44.5996049,40.1891853],[44.5998114,40.1895157],[44.6002007,40.1905123],[44.6003072,40.1908181],[44.600829,40.1922335],[44.601404,40.1938572],[44.6044439,40.1943896],[44.6041057,40.1953062],[44.6006494,40.1947551],[44.6001191,40.1946636],[44.5989989,40.1947219],[44.5980326,40.1947711],[44.5970826,40.1947156],[44.5960383,40.1945415],[44.5953461,40.1942585],[44.5892193,40.1901579],[44.58877,40.190219],[44.5887217,40.1903503],[44.5887091,40.1908513],[44.5887077,40.1909877],[44.5884562,40.1914483],[44.5883432,40.1916829],[44.5881274,40.1921243],[44.5873264,40.1935578],[44.5865171,40.1949456],[44.586394,40.1951567],[44.5862217,40.1954639],[44.585672,40.1963806],[44.5852911,40.1970587],[44.584948,40.197625],[44.5844406,40.1985079],[44.5840788,40.1990516],[44.5834188,40.1999982],[44.5819644,40.202204],[44.5814542,40.2029592],[44.5805952,40.204028],[44.5799231,40.2048003],[44.579261,40.2054458],[44.5789158,40.205763],[44.5778318,40.2064526],[44.5774727,40.2066683],[44.5769971,40.2069102],[44.5763912,40.2070607],[44.5758858,40.2070896],[44.5749854,40.2069891],[44.572992,40.2067503],[44.5721674,40.2078674],[44.5732088,40.2092709],[44.5723458,40.2089337],[44.5721767,40.20906],[44.5720755,40.2092221],[44.5719844,40.2094462],[44.5715281,40.209437],[44.5697404,40.2099829],[44.5692334,40.2098462],[44.5686592,40.2096507],[44.5674511,40.2091015],[44.56689,40.2088742],[44.5662912,40.2086219],[44.565603,40.208334],[44.5647345,40.2079697],[44.5640443,40.2076568],[44.5637273,40.2075193],[44.5627779,40.207107],[44.5626559,40.2070538],[44.5613114,40.2069907],[44.5606673,40.2069359],[44.5600273,40.2066961],[44.5597267,40.2065351],[44.5595065,40.2063802],[44.5592258,40.206134],[44.5575486,40.2045533],[44.5553892,40.2024793],[44.5493823,40.1975834],[44.5479359,40.1961261],[44.5474249,40.1956112],[44.5475764,40.1954503],[44.5478954,40.1950002],[44.5483966,40.1950764],[44.5500065,40.1957658],[44.5511527,40.1938145],[44.5517952,40.1926713],[44.551112,40.191565],[44.5504987,40.1891204],[44.550508,40.1881769],[44.5542733,40.1861971],[44.5544993,40.1860776],[44.5541697,40.1857767],[44.5541102,40.1857224],[44.5534932,40.185159],[44.5528061,40.1845318],[44.5526065,40.1843295],[44.5460995,40.1784056],[44.5459795,40.1780341],[44.5459078,40.1774224],[44.5457861,40.1763842],[44.5456894,40.1755599],[44.5456825,40.1749231],[44.5456784,40.1747415],[44.5456649,40.1741393],[44.5458689,40.1730822],[44.546121,40.1726327],[44.5466905,40.172027],[44.546313,40.171272],[44.5456047,40.1701436],[44.5451569,40.1694036],[44.5449443,40.1694539],[44.5447806,40.1694985],[44.5446573,40.1695644],[44.5446053,40.1696257],[44.5445623,40.1697163],[44.5445498,40.1698405],[44.54436,40.1701028],[44.5440788,40.1697871],[44.5435636,40.1691935],[44.5425919,40.1680725],[44.5420587,40.1674635],[44.5416176,40.1674089],[44.5413428,40.1674069],[44.541255,40.1671461],[44.5411669,40.1668365]]]]},"properties":{"slug":"nor-nork","kind":"CITY_DISTRICT","city":"Yerevan","marz":"Yerevan","osmType":"relation","osmId":13404220,"nameHy":"Նոր Նորք","nameRu":"Нор Норк","nameEn":"Nor Norq"}},{"type":"Feature","geometry":{"type":"MultiPolygon","coordinates":[[[[44.5254552,40.1681891],[44.5254842,40.1681795],[44.5256403,40.1681271],[44.5269713,40.1677352],[44.529742,40.1669073],[44.5345683,40.1654653],[44.5359855,40.1675446],[44.5387666,40.166801],[44.5392331,40.1666763],[44.5399619,40.1664814],[44.5406651,40.1662934],[44.541824,40.1659836],[44.5417288,40.1662386],[44.5413368,40.1664908],[44.5412214,40.1666399],[44.5411669,40.1668365],[44.541255,40.1671461],[44.5413428,40.1674069],[44.5416176,40.1674089],[44.5420587,40.1674635],[44.5425919,40.1680725],[44.5435636,40.1691935],[44.5440788,40.1697871],[44.54436,40.1701028],[44.5445498,40.1698405],[44.5445623,40.1697163],[44.5446053,40.1696257],[44.5446573,40.1695644],[44.5447806,40.1694985],[44.5449443,40.1694539],[44.5451569,40.1694036],[44.5456047,40.1701436],[44.546313,40.171272],[44.5466905,40.172027],[44.546121,40.1726327],[44.5458689,40.1730822],[44.5456649,40.1741393],[44.5456784,40.1747415],[44.5456825,40.1749231],[44.5456894,40.1755599],[44.5457861,40.1763842],[44.5459078,40.1774224],[44.5459795,40.1780341],[44.5460995,40.1784056],[44.5526065,40.1843295],[44.5528061,40.1845318],[44.5534932,40.185159],[44.5541102,40.1857224],[44.5541697,40.1857767],[44.5544993,40.1860776],[44.5542733,40.1861971],[44.550508,40.1881769],[44.5504987,40.1891204],[44.551112,40.191565],[44.5517952,40.1926713],[44.5511527,40.1938145],[44.5500065,40.1957658],[44.5483966,40.1950764],[44.5478954,40.1950002],[44.5440134,40.1944103],[44.5422508,40.194486],[44.5413581,40.1945875],[44.5407805,40.194685],[44.5402229,40.194788],[44.5397496,40.1948936],[44.5392525,40.1949827],[44.5387871,40.1950744],[44.5384177,40.1951528],[44.5382053,40.1951952],[44.5380671,40.1952228],[44.5378445,40.1952498],[44.5376527,40.195265],[44.5374432,40.1952623],[44.5373223,40.1952529],[44.536964,40.1951943],[44.5367074,40.1951246],[44.5365092,40.1950473],[44.536287,40.1949445],[44.5361042,40.1948333],[44.5358884,40.1946789],[44.535206,40.1940907],[44.5341831,40.1932138],[44.5335453,40.1928409],[44.533308,40.1927638],[44.532484,40.1924962],[44.5325369,40.192376],[44.5325513,40.1922331],[44.5325547,40.1921558],[44.5325641,40.1919519],[44.5325607,40.1917788],[44.5325393,40.1916231],[44.5325084,40.191452],[44.5324494,40.1912613],[44.5323723,40.1910508],[44.5320304,40.1907006],[44.5315359,40.1901768],[44.5311465,40.1898154],[44.5302997,40.189229],[44.5293297,40.1886777],[44.5291449,40.18852],[44.528745,40.1881594],[44.5285018,40.1878489],[44.5282992,40.1874595],[44.5283179,40.1872212],[44.5283199,40.1866802],[44.5285408,40.1861221],[44.5288782,40.1855101],[44.529191,40.1848682],[44.5294317,40.1839053],[44.5297307,40.1833201],[44.5302668,40.1827989],[44.5309146,40.1821935],[44.5313624,40.1817406],[44.5315727,40.1813925],[44.5317064,40.1810108],[44.5317216,40.1806581],[44.5316692,40.1802845],[44.5314137,40.1796803],[44.5310837,40.1792238],[44.5309566,40.179051],[44.5306964,40.1789105],[44.5294583,40.1781323],[44.5288253,40.1774846],[44.5286474,40.1768659],[44.5285851,40.1761499],[44.5285997,40.1736845],[44.5284273,40.1723582],[44.5274672,40.170091],[44.5272063,40.1695649],[44.526762,40.1690692],[44.5267024,40.1690165],[44.5258089,40.1683546],[44.5257194,40.168327],[44.5255708,40.168264],[44.5254552,40.1681891]]]]},"properties":{"slug":"nork-marash","kind":"CITY_DISTRICT","city":"Yerevan","marz":"Yerevan","osmType":"relation","osmId":13404217,"nameHy":"Նորք Մարաշ","nameRu":"Норк Мараш","nameEn":"Norq Marash"}},{"type":"Feature","geometry":{"type":"MultiPolygon","coordinates":[[[[44.5027525,40.0718952],[44.5028527,40.0717383],[44.5034635,40.0716539],[44.5043805,40.0718475],[44.5054732,40.0720684],[44.5061664,40.0722522],[44.5073341,40.0728363],[44.5077276,40.0728459],[44.5077674,40.072715],[44.5073786,40.0722665],[44.5071971,40.0719055],[44.5071114,40.0716943],[44.5071324,40.0715291],[44.5073462,40.0713919],[44.5077001,40.071385],[44.5084922,40.0715129],[44.509345,40.0715247],[44.5094136,40.0713487],[44.5093254,40.0709559],[44.509313,40.0706967],[44.5094777,40.0704491],[44.5098951,40.06984],[44.5102708,40.0697483],[44.5121182,40.0700862],[44.5126657,40.0700932],[44.5132079,40.0701936],[44.513727,40.0703728],[44.5141973,40.0704649],[44.514634,40.0701861],[44.5150404,40.0699083],[44.5153167,40.0696637],[44.5154514,40.0694673],[44.5155021,40.0692937],[44.5156623,40.0693445],[44.517007,40.0700977],[44.5188218,40.0708748],[44.5206055,40.0717424],[44.5241649,40.073797],[44.526668,40.0713953],[44.5269466,40.0699077],[44.5289145,40.0674771],[44.5302956,40.0658518],[44.5345325,40.0676173],[44.5367315,40.0685969],[44.5395533,40.0719668],[44.5447286,40.075455],[44.5458595,40.0761973],[44.5477858,40.0752373],[44.5490858,40.0724499],[44.5533813,40.0755949],[44.5546358,40.0795616],[44.554157,40.0820477],[44.5577666,40.0844647],[44.5629887,40.0907387],[44.5652001,40.0930561],[44.5706195,40.0948775],[44.5726093,40.0983372],[44.5740166,40.0997788],[44.5755874,40.1020647],[44.580276,40.1023866],[44.5865024,40.1061228],[44.594834,40.108604],[44.6152165,40.1364496],[44.6152543,40.1374414],[44.6115907,40.1367666],[44.6076547,40.1375705],[44.6047366,40.1368207],[44.6021042,40.1276926],[44.6013318,40.1263637],[44.6000763,40.1254336],[44.5964046,40.1242029],[44.5939074,40.1234595],[44.5904313,40.1195052],[44.5890365,40.118094],[44.5865903,40.1165515],[44.5830284,40.1153536],[44.5773439,40.1156523],[44.5704075,40.1160169],[44.5651997,40.1162905],[44.5535388,40.1177271],[44.5449618,40.1189212],[44.5386762,40.1178742],[44.5358338,40.118007],[44.5339355,40.1183696],[44.5300103,40.1143852],[44.5298262,40.1120949],[44.5311664,40.1061452],[44.5303946,40.1048418],[44.5321409,40.1042202],[44.5285654,40.1034343],[44.527064,40.1030233],[44.5270423,40.1024083],[44.5267219,40.1020808],[44.5265148,40.1017534],[44.5263445,40.1004703],[44.5229867,40.0993873],[44.5203237,40.0977452],[44.5181426,40.0953947],[44.5187729,40.0940286],[44.5195546,40.0942569],[44.5196782,40.0941244],[44.5191395,40.0935252],[44.5203153,40.0921192],[44.5163038,40.0900507],[44.5155983,40.0889479],[44.5125681,40.0877172],[44.5117113,40.0870142],[44.5106534,40.0865403],[44.5090639,40.086614],[44.5069125,40.0868016],[44.5068056,40.0866492],[44.5066245,40.0864668],[44.5065484,40.086374],[44.5065245,40.0862948],[44.506548,40.0862079],[44.5065909,40.0861618],[44.5066575,40.0861188],[44.5067594,40.0860976],[44.5069069,40.0860987],[44.5072125,40.086111],[44.507411,40.0861243],[44.5075734,40.086169],[44.5077021,40.0862351],[44.5078408,40.0863015],[44.5079876,40.0863651],[44.5080816,40.0863432],[44.5081734,40.0862637],[44.5082559,40.086141],[44.508342,40.0858966],[44.5079798,40.0855959],[44.5075312,40.0852823],[44.5074481,40.0850842],[44.5076401,40.0843706],[44.5075234,40.0842772],[44.5070061,40.0840455],[44.5067233,40.0831673],[44.506166,40.0823129],[44.5053967,40.0813373],[44.5043992,40.0803759],[44.5039223,40.0799583],[44.5036752,40.0797342],[44.5036706,40.0795201],[44.503806,40.079316],[44.5039379,40.0792322],[44.5047835,40.0794882],[44.5053371,40.0796584],[44.5058112,40.0797851],[44.5059563,40.0797589],[44.5063069,40.0794604],[44.5062651,40.0789383],[44.5061278,40.0783846],[44.5060328,40.0782447],[44.5054871,40.0778322],[44.5048659,40.0772483],[44.5044043,40.0767847],[44.5040594,40.0764481],[44.503556,40.0760735],[44.5031157,40.0757528],[44.5030864,40.075635],[44.5031517,40.0754813],[44.5032618,40.0754312],[44.5037061,40.0753788],[44.5040176,40.0753793],[44.5048847,40.0756835],[44.5050782,40.0757908],[44.505378,40.0759996],[44.5055843,40.0761863],[44.5057795,40.0762433],[44.5058799,40.0761857],[44.5057593,40.0759859],[44.5056062,40.0757653],[44.5055577,40.0756014],[44.5054875,40.0753369],[44.505021,40.0749627],[44.5046278,40.0746856],[44.5041099,40.0744708],[44.5036721,40.0741706],[44.5034783,40.0739322],[44.5031494,40.0729534],[44.5027758,40.072116],[44.5027525,40.0718952]]]]},"properties":{"slug":"nubarashen","kind":"CITY_DISTRICT","city":"Yerevan","marz":"Yerevan","osmType":"relation","osmId":13404214,"nameHy":"Նուբարաշեն","nameRu":"Нубарашен","nameEn":"Nubarashen"}},{"type":"Feature","geometry":{"type":"MultiPolygon","coordinates":[[[[44.4250644,40.1309514],[44.4257483,40.1301234],[44.4268434,40.1280778],[44.4353876,40.128198],[44.4344401,40.1275159],[44.4342158,40.127489],[44.434054,40.1274111],[44.4338876,40.1272473],[44.4337925,40.1270386],[44.433894,40.1263751],[44.4336527,40.1261619],[44.4333774,40.1261148],[44.4331428,40.1253939],[44.4334569,40.1248716],[44.4334938,40.1248102],[44.432807,40.1245024],[44.4323734,40.1248093],[44.431857,40.1248406],[44.431501,40.1244438],[44.4316784,40.1236307],[44.4312259,40.1236552],[44.4308493,40.1236111],[44.4306181,40.123466],[44.4304071,40.1231302],[44.4305766,40.1228653],[44.4309939,40.1226275],[44.4317408,40.1225112],[44.4322359,40.1224017],[44.4324433,40.121903],[44.4330492,40.1214511],[44.4315036,40.1205705],[44.4305679,40.1204145],[44.4300081,40.1207041],[44.4296407,40.1200837],[44.4293613,40.1190996],[44.4287366,40.1173603],[44.430444,40.1145757],[44.4322872,40.1159914],[44.433405,40.1168785],[44.4354701,40.1185335],[44.4363831,40.1176321],[44.4380014,40.1160528],[44.4391381,40.1149451],[44.4398607,40.1142278],[44.4422585,40.1118702],[44.4440611,40.1100835],[44.4447476,40.1093975],[44.4490571,40.1092369],[44.4508891,40.1091239],[44.4526613,40.1092761],[44.4537962,40.1092378],[44.4500088,40.1045711],[44.4508606,40.104157],[44.4550789,40.1091328],[44.4569035,40.1090196],[44.4581241,40.1089544],[44.4591386,40.1085938],[44.4562179,40.1056227],[44.4567603,40.1052389],[44.4577573,40.1046647],[44.4582894,40.1048842],[44.4590487,40.1052681],[44.4598763,40.1059361],[44.4613238,40.1051333],[44.4625969,40.1044021],[44.4628177,40.1043585],[44.4630768,40.1044087],[44.4633339,40.1045983],[44.4634377,40.1047585],[44.4635081,40.1051283],[44.4635192,40.105515],[44.4635315,40.1056648],[44.4636299,40.1057377],[44.4637756,40.1057598],[44.4639132,40.1057322],[44.4642354,40.1055329],[44.4644522,40.1054789],[44.4646337,40.1055617],[44.4656365,40.106731],[44.4659709,40.107101],[44.4664193,40.1070535],[44.4667752,40.1070438],[44.4682773,40.1069339],[44.4692597,40.106824],[44.4708291,40.10674],[44.4709929,40.1066985],[44.4711943,40.1066624],[44.4719819,40.1064296],[44.4728158,40.1061283],[44.4739727,40.1057126],[44.4746824,40.1056779],[44.4754715,40.1056673],[44.476833,40.1056473],[44.4778639,40.1056412],[44.4788692,40.1056459],[44.4802607,40.1056558],[44.4809244,40.1056721],[44.4810565,40.1057114],[44.4811275,40.1057466],[44.4813,40.1057477],[44.4858779,40.1054206],[44.4868557,40.1053399],[44.4871826,40.1052834],[44.4872954,40.1052727],[44.4878657,40.1052588],[44.4910662,40.1051113],[44.491494,40.1050226],[44.4918254,40.1048937],[44.4916419,40.1046577],[44.4917071,40.104513],[44.4923322,40.104241],[44.4923814,40.1041736],[44.4923593,40.1038343],[44.4923459,40.1037697],[44.4918704,40.1034313],[44.4918698,40.1030943],[44.4912003,40.1028604],[44.4908924,40.1027196],[44.4908175,40.1025713],[44.4908459,40.1023358],[44.490929,40.1019974],[44.4909951,40.1018625],[44.4909655,40.1017545],[44.4908627,40.1016478],[44.4902749,40.1014221],[44.4901727,40.1009573],[44.4902461,40.1008274],[44.4905841,40.1005177],[44.490696,40.1001231],[44.4906466,40.1000239],[44.4905272,40.0998629],[44.4900576,40.0995749],[44.4898636,40.0994455],[44.489574,40.0992436],[44.4894694,40.0990638],[44.4893134,40.0987428],[44.4890598,40.0966486],[44.4890449,40.0962788],[44.4890813,40.0957352],[44.4891113,40.0955459],[44.4891637,40.0954381],[44.4892737,40.0953433],[44.4893948,40.0952532],[44.4895599,40.0951921],[44.4896674,40.0951586],[44.4897812,40.0951714],[44.4904733,40.0952864],[44.4918961,40.0959379],[44.4925879,40.0962379],[44.4930295,40.0964066],[44.49323,40.0963199],[44.4927924,40.0957287],[44.4921935,40.0950944],[44.4921218,40.0948525],[44.4925356,40.0943406],[44.4925,40.093989],[44.4905056,40.093105],[44.490062,40.0923726],[44.4898409,40.09176],[44.4898467,40.0915824],[44.4900042,40.0912965],[44.4896334,40.0910355],[44.4894998,40.0908634],[44.4895054,40.0905385],[44.4895452,40.090419],[44.489949,40.0900953],[44.4899552,40.0900875],[44.4900084,40.0900207],[44.4900338,40.0898873],[44.4901086,40.0891489],[44.4904675,40.0884833],[44.4906556,40.0884077],[44.4914881,40.0882225],[44.4915096,40.0878766],[44.4912432,40.0876215],[44.4911214,40.0870544],[44.4911964,40.0868759],[44.4913841,40.0864682],[44.4917633,40.0858972],[44.4923073,40.0855325],[44.4925519,40.0852925],[44.4931622,40.084479],[44.4933645,40.0843049],[44.4936731,40.0842911],[44.494436,40.0846001],[44.5002142,40.0869628],[44.5003458,40.0871234],[44.5005316,40.0871989],[44.500952,40.0871281],[44.5018412,40.0873144],[44.5020908,40.0873691],[44.5027939,40.0876207],[44.5029558,40.0875122],[44.5030675,40.0873808],[44.5031728,40.0872995],[44.5034164,40.0872555],[44.5036772,40.0872676],[44.5039123,40.0874598],[44.5040506,40.0874483],[44.5042149,40.0872332],[44.5044267,40.0872089],[44.5050817,40.087463],[44.5055371,40.0876268],[44.505798,40.0880354],[44.5068763,40.0884191],[44.5069728,40.0884341],[44.5070666,40.0883329],[44.5070615,40.0882569],[44.5070375,40.0881586],[44.5069464,40.0880162],[44.5067953,40.0878738],[44.506634,40.0877788],[44.5065163,40.0877046],[44.506441,40.0876001],[44.5064202,40.0874835],[44.506405,40.0873181],[44.5064279,40.0870945],[44.506461,40.0870242],[44.5065283,40.0869828],[44.5068905,40.0869437],[44.5069422,40.0868867],[44.5069125,40.0868016],[44.5090639,40.086614],[44.5106534,40.0865403],[44.5117113,40.0870142],[44.5125681,40.0877172],[44.5155983,40.0889479],[44.5163038,40.0900507],[44.5203153,40.0921192],[44.5191395,40.0935252],[44.5196782,40.0941244],[44.5195546,40.0942569],[44.5187729,40.0940286],[44.5181426,40.0953947],[44.5203237,40.0977452],[44.5229867,40.0993873],[44.5263445,40.1004703],[44.5265148,40.1017534],[44.5267219,40.1020808],[44.5270423,40.1024083],[44.527064,40.1030233],[44.5261721,40.1029121],[44.5131286,40.1024186],[44.5129078,40.1054667],[44.5101342,40.1058499],[44.5080962,40.107738],[44.5062836,40.1087931],[44.5054158,40.1092918],[44.5051248,40.1096519],[44.5064069,40.1113592],[44.5066795,40.111602],[44.5077369,40.1124553],[44.5078394,40.1126185],[44.5082185,40.1137823],[44.5083978,40.1158662],[44.5086993,40.1191241],[44.5089345,40.1217659],[44.509055,40.1229353],[44.5091852,40.1241592],[44.5091903,40.1243976],[44.5091537,40.1245716],[44.5088882,40.1245174],[44.5079631,40.1244272],[44.5076853,40.1244104],[44.5073011,40.1244449],[44.5064422,40.1246776],[44.5065847,40.1249407],[44.5069403,40.1264652],[44.5069746,40.1266415],[44.5073352,40.1276624],[44.5073772,40.1400446],[44.5073836,40.1419172],[44.5073871,40.1429511],[44.5073983,40.1462531],[44.5074046,40.1480995],[44.5073732,40.149527],[44.5073564,40.1499004],[44.5073331,40.1504198],[44.5073115,40.1509018],[44.5073028,40.1510945],[44.5072765,40.1516808],[44.5072418,40.152453],[44.5081949,40.1631536],[44.5054837,40.1632593],[44.5044384,40.163277],[44.5038388,40.1636758],[44.5032167,40.1638084],[44.5022903,40.1644723],[44.5018539,40.1643031],[44.5013441,40.1641054],[44.5008295,40.1638816],[44.5009871,40.1637246],[44.5009977,40.1634871],[44.5009398,40.1632233],[44.5007599,40.1627608],[44.5002308,40.1621737],[44.4995823,40.1616044],[44.4993339,40.1609982],[44.4992091,40.1607485],[44.4991084,40.160512],[44.4985132,40.159115],[44.4981086,40.1585739],[44.4977454,40.1583336],[44.49718,40.1580864],[44.4964673,40.1579796],[44.4953641,40.1579796],[44.4946501,40.1579616],[44.4942546,40.1579187],[44.4931034,40.1584762],[44.4921831,40.1589771],[44.4915614,40.1591843],[44.4905583,40.1593433],[44.488895,40.1594077],[44.4870699,40.1596598],[44.4866269,40.1600194],[44.4863925,40.1604225],[44.4866224,40.1608088],[44.4881631,40.1620367],[44.489224,40.1631177],[44.489224,40.1639935],[44.4890835,40.164534],[44.4887571,40.1651959],[44.4883773,40.1656567],[44.4878333,40.1659298],[44.4873395,40.1661863],[44.4867108,40.1663545],[44.4859653,40.1663438],[44.4853898,40.1661796],[44.4849108,40.1658677],[44.4845986,40.1655728],[44.48353,40.1666738],[44.4837162,40.1667935],[44.4834293,40.166718],[44.4789943,40.1646502],[44.4777285,40.1640807],[44.4777704,40.163984],[44.4756973,40.1630783],[44.4746313,40.1626087],[44.4707587,40.1608436],[44.4698037,40.1604066],[44.4694538,40.1601124],[44.4690001,40.1592261],[44.4689173,40.1588666],[44.4692325,40.158395],[44.4701062,40.1576898],[44.4708428,40.1574012],[44.4722514,40.1570567],[44.4719352,40.1564464],[44.471726,40.1559327],[44.4717484,40.1556485],[44.4721021,40.1551284],[44.4721845,40.1548294],[44.4721779,40.1544089],[44.4718671,40.1539163],[44.4702946,40.152645],[44.469437,40.1521716],[44.4692559,40.1516454],[44.4692566,40.1508005],[44.4693,40.1504983],[44.4694141,40.1498721],[44.4693673,40.149665],[44.4691865,40.1495854],[44.4688306,40.1495359],[44.4679717,40.1496106],[44.4668961,40.1492027],[44.4658488,40.1490438],[44.4650389,40.1490262],[44.4640624,40.1491947],[44.4628571,40.1495303],[44.46211,40.1499975],[44.4615607,40.1505976],[44.4611062,40.1508572],[44.4598084,40.1512389],[44.4580023,40.1517559],[44.4568328,40.1524157],[44.4564495,40.1529487],[44.4558732,40.1538549],[44.4551314,40.1546878],[44.4546527,40.1554542],[44.45441,40.1556516],[44.4539222,40.1557056],[44.4531994,40.1556381],[44.4522971,40.155402],[44.4517555,40.1552892],[44.4512953,40.1553053],[44.4508379,40.1554224],[44.4492067,40.1564596],[44.4483323,40.1566459],[44.4478295,40.1566516],[44.4473163,40.1565865],[44.4467244,40.1564049],[44.4456503,40.1556423],[44.4448755,40.1551645],[44.4448191,40.1549671],[44.4441929,40.1542845],[44.4436784,40.1537123],[44.442216,40.1516829],[44.4421456,40.151245],[44.4417009,40.1502544],[44.4408975,40.1494831],[44.4399686,40.1484641],[44.439505,40.1482918],[44.4386284,40.1473906],[44.4369916,40.1462646],[44.4362539,40.1458495],[44.4357165,40.1453064],[44.435448,40.1450485],[44.4352606,40.1448887],[44.4351927,40.1448098],[44.4351615,40.1447275],[44.4351574,40.1446889],[44.4352336,40.144252],[44.4354369,40.1438962],[44.4355826,40.1436717],[44.4357855,40.1435694],[44.4361852,40.1431259],[44.4361591,40.1430808],[44.4360185,40.1429978],[44.435929,40.1429178],[44.4355498,40.1429835],[44.4348994,40.14186],[44.4334136,40.1392652],[44.4333976,40.1387684],[44.4337418,40.1367438],[44.4325816,40.1367933],[44.4320624,40.1368249],[44.4320676,40.1369294],[44.4308243,40.1369973],[44.4307745,40.1369367],[44.4304813,40.1361011],[44.4302902,40.1357534],[44.4302017,40.1355657],[44.4299689,40.1350566],[44.4297267,40.1347782],[44.4295189,40.1345638],[44.4290711,40.1340986],[44.4284051,40.1334343],[44.4282396,40.1331963],[44.4283564,40.1328405],[44.4283585,40.1326568],[44.4283669,40.1319355],[44.4283373,40.130877],[44.4250644,40.1309514]]]]},"properties":{"slug":"shengavit","kind":"CITY_DISTRICT","city":"Yerevan","marz":"Yerevan","osmType":"relation","osmId":13404215,"nameHy":"Շենգավիթ","nameRu":"Шенгавит","nameEn":"Shengavit"}},{"type":"Feature","geometry":{"type":"MultiPolygon","coordinates":[[[[43.7833714,40.8119254],[43.7883281,40.8101227],[43.7905213,40.8101606],[43.7952898,40.8080151],[43.7951946,40.8067282],[43.801825,40.8018231],[43.803091,40.8017094],[43.8075602,40.7978678],[43.8070393,40.7973236],[43.8092401,40.7944086],[43.8107192,40.79522],[43.8156652,40.7889574],[43.8171243,40.7830761],[43.8190818,40.7804503],[43.8123822,40.7790304],[43.8104081,40.776528],[43.8102579,40.7738956],[43.8081943,40.7725818],[43.8146734,40.7727198],[43.8168925,40.7667703],[43.8159656,40.7642264],[43.817575,40.7643726],[43.8174891,40.7597244],[43.8216172,40.7589761],[43.8241196,40.7608621],[43.8245273,40.7629668],[43.8268447,40.7624386],[43.8270378,40.7574651],[43.8261151,40.7564411],[43.8259864,40.7532553],[43.8275872,40.7524542],[43.8305461,40.7550595],[43.833003,40.7540192],[43.8363933,40.7575789],[43.8384533,40.7574651],[43.8392472,40.7585541],[43.8446331,40.762211],[43.846457,40.7611709],[43.8493752,40.7627799],[43.8504696,40.7612034],[43.8496971,40.7582778],[43.8537097,40.7523775],[43.8483535,40.7478725],[43.8522506,40.7445015],[43.8447069,40.7296958],[43.8456725,40.7289387],[43.8475754,40.7283418],[43.852776,40.7323041],[43.859265,40.7397437],[43.8693253,40.7594092],[43.8680829,40.7710616],[43.8705592,40.7724736],[43.8671281,40.7769838],[43.8678074,40.7780386],[43.8678895,40.7794989],[43.8683114,40.7810558],[43.8719554,40.7851986],[43.8716828,40.7860001],[43.8698453,40.786156],[43.8697912,40.791671],[43.8697791,40.7944452],[43.8700451,40.7944667],[43.8702744,40.7947973],[43.8751356,40.7931562],[43.8766679,40.795968],[43.8754901,40.798606],[43.8726475,40.8016644],[43.8783909,40.8090904],[43.8769536,40.8112128],[43.8836695,40.8153674],[43.8825755,40.8162734],[43.8812199,40.8171087],[43.8695314,40.8171523],[43.8572596,40.8166284],[43.8565436,40.8222248],[43.8347906,40.8254465],[43.8359828,40.8330647],[43.8293604,40.8330832],[43.8191561,40.8331118],[43.816545,40.8345932],[43.8140988,40.8318007],[43.7963962,40.8414926],[43.7915736,40.8365007],[43.7944275,40.8348732],[43.790136,40.8307941],[43.7902593,40.8285373],[43.7943578,40.8260206],[43.7919116,40.823244],[43.7907743,40.8232278],[43.7903774,40.8225864],[43.7879419,40.8209382],[43.788414,40.8205485],[43.791182,40.8202237],[43.7916112,40.8190546],[43.7893152,40.8167974],[43.7894411,40.816639],[43.7896688,40.8163525],[43.7901413,40.815758],[43.7865579,40.8141909],[43.7833714,40.8119254]]]]},"properties":{"slug":"gyumri","kind":"TOWN","city":"Gyumri","marz":"Գյումրի-Ախուրյան սահման","osmType":"relation","osmId":7814501,"nameHy":"Գյումրի","nameRu":"Гюмри","nameEn":"Gyumri"}},{"type":"Feature","geometry":{"type":"MultiPolygon","coordinates":[[[[44.4199857,40.8453774],[44.4219145,40.843997],[44.4242042,40.8424701],[44.4282256,40.8396461],[44.4309756,40.8366197],[44.4311809,40.8363938],[44.4320856,40.8347516],[44.4326924,40.833798],[44.4336291,40.8332186],[44.4341481,40.8326364],[44.4346169,40.8321577],[44.4350741,40.8317593],[44.4355374,40.8314499],[44.4366439,40.830745],[44.4371707,40.8304374],[44.4376856,40.8301771],[44.4376041,40.8290981],[44.4388094,40.8288419],[44.4396877,40.8286041],[44.4402965,40.8277214],[44.4406762,40.827372],[44.4401057,40.8265674],[44.440086,40.8265466],[44.4397072,40.8261461],[44.4396461,40.8258715],[44.4397079,40.8255444],[44.4403823,40.8250154],[44.4409313,40.8243967],[44.4408407,40.8241023],[44.4405997,40.8239848],[44.4396152,40.8236635],[44.4391807,40.8230774],[44.4389049,40.8222881],[44.4393231,40.8219603],[44.4400966,40.8225224],[44.4408496,40.8230796],[44.4415976,40.823361],[44.4423885,40.8234494],[44.443905,40.8230231],[44.4466314,40.8226568],[44.4470333,40.8226668],[44.4476954,40.8224649],[44.4483602,40.8223025],[44.4497104,40.822054],[44.4500494,40.8222679],[44.4500642,40.8228169],[44.4507305,40.8232128],[44.4513831,40.8234904],[44.4520481,40.8234145],[44.452742,40.8235164],[44.4532855,40.823308],[44.45326,40.8225101],[44.453944,40.8218922],[44.4548576,40.8212004],[44.4550133,40.8192418],[44.4545828,40.8174834],[44.4561464,40.8143185],[44.4573369,40.8137897],[44.4586202,40.8137724],[44.4612901,40.8137296],[44.461871,40.8137203],[44.4637858,40.8144274],[44.4645242,40.8147299],[44.4651409,40.8145821],[44.465319,40.8141513],[44.4659337,40.8118113],[44.4656426,40.8110181],[44.4653125,40.8102228],[44.4652069,40.8095643],[44.464834,40.8091268],[44.4649191,40.809027],[44.4653436,40.8088916],[44.4655974,40.8088108],[44.4662346,40.8086212],[44.4665869,40.8086183],[44.4668806,40.8088008],[44.4679573,40.8083751],[44.4678518,40.8081855],[44.4676932,40.8079271],[44.4677459,40.8077567],[44.468552,40.807364],[44.4685689,40.8073558],[44.4700751,40.8076562],[44.4708486,40.8078192],[44.4714607,40.8078953],[44.4719448,40.8078975],[44.4723922,40.8076717],[44.4734736,40.8069802],[44.4744866,40.8065521],[44.4752803,40.8061298],[44.4752978,40.8061205],[44.4758098,40.8058095],[44.4758035,40.8055508],[44.4757961,40.8050558],[44.4756482,40.8047699],[44.4754431,40.8045159],[44.4749962,40.8040578],[44.4752035,40.8037128],[44.4758581,40.8037878],[44.4776635,40.8034667],[44.4794019,40.8034013],[44.4814011,40.8031685],[44.4818063,40.8029942],[44.4820661,40.8027781],[44.4824001,40.8022735],[44.4828174,40.8018593],[44.4831155,40.8014413],[44.4831357,40.8012632],[44.4831127,40.8009767],[44.4831001,40.8008196],[44.4824965,40.8001595],[44.4831023,40.7995257],[44.4833397,40.7993477],[44.4836147,40.7991954],[44.484325,40.7988754],[44.4847093,40.7985725],[44.4850762,40.798254],[44.4855333,40.7971388],[44.4858216,40.7937271],[44.4859099,40.7924668],[44.4857542,40.7917995],[44.4856851,40.7915392],[44.4855845,40.79111],[44.4853813,40.7909352],[44.4853462,40.790905],[44.4848792,40.7907246],[44.4849914,40.7903149],[44.4849041,40.7901454],[44.484738,40.7899389],[44.4847342,40.7899208],[44.4846752,40.789643],[44.4849469,40.7892482],[44.485085,40.7888797],[44.485075,40.7886973],[44.4848725,40.7881036],[44.4843964,40.7865305],[44.48382,40.7852025],[44.4825942,40.783371],[44.4764437,40.7840166],[44.4762276,40.7835514],[44.4773125,40.7829678],[44.4784181,40.7826904],[44.479816,40.782206],[44.4803918,40.7813112],[44.4799027,40.7808438],[44.4805249,40.7804387],[44.4815304,40.7806231],[44.482603,40.7812568],[44.4833703,40.7814562],[44.4850245,40.7837516],[44.4855226,40.7843541],[44.486064,40.7852952],[44.4860751,40.7853144],[44.48648,40.785519],[44.4868312,40.7854305],[44.4868441,40.7854272],[44.4871364,40.7855491],[44.4873107,40.7854841],[44.4876328,40.7853517],[44.4885382,40.7857072],[44.489409,40.7855247],[44.4905747,40.7852265],[44.4907645,40.7851779],[44.4909472,40.7852787],[44.4916379,40.7855181],[44.4918875,40.7856046],[44.4921512,40.78631],[44.490657,40.7867758],[44.489432,40.7864118],[44.4887907,40.7868869],[44.4884479,40.7870066],[44.4878924,40.7870537],[44.4879645,40.7876189],[44.4882106,40.7879915],[44.4885446,40.7883841],[44.4888588,40.7888299],[44.4893887,40.7903499],[44.4891527,40.7909501],[44.4891467,40.7915499],[44.4892277,40.792034],[44.4894314,40.7927793],[44.4897143,40.7936038],[44.4898302,40.7943819],[44.4898633,40.7946022],[44.4899419,40.7948669],[44.4902066,40.795134],[44.4902839,40.7953723],[44.4903403,40.7955411],[44.4904375,40.7956685],[44.4906505,40.7957276],[44.4910864,40.7958169],[44.4915278,40.7958613],[44.4918793,40.7958813],[44.4925825,40.795848],[44.4939361,40.7957641],[44.4948723,40.7957089],[44.4959994,40.7958079],[44.4975178,40.7960169],[44.4990602,40.7954932],[44.5007264,40.79495],[44.5027129,40.794246],[44.5026918,40.7941532],[44.5033357,40.7939776],[44.5037811,40.7937604],[44.5039375,40.7936418],[44.5038644,40.7932748],[44.5033018,40.7906603],[44.503553,40.7905052],[44.5055828,40.7902072],[44.5063546,40.7906452],[44.5077399,40.790757],[44.5129832,40.7883791],[44.5139735,40.7885188],[44.5149719,40.788258],[44.5159717,40.7879827],[44.517114,40.7879319],[44.5188067,40.7875372],[44.5211579,40.7873439],[44.5215442,40.7872998],[44.5234911,40.7872453],[44.5243996,40.7864521],[44.5238293,40.7853092],[44.5228981,40.7838989],[44.5219474,40.7827531],[44.5201775,40.7812434],[44.519548,40.7796257],[44.5193332,40.7790345],[44.5195426,40.7784419],[44.5197386,40.7783561],[44.5198888,40.7783663],[44.5203808,40.7784321],[44.521054,40.7783682],[44.5212151,40.7795046],[44.5227728,40.7806702],[44.5231376,40.7810927],[44.5237115,40.7812958],[44.5245961,40.7806488],[44.5248243,40.78065],[44.5249316,40.7808206],[44.5248887,40.7812593],[44.524672,40.7818723],[44.5253062,40.7826964],[44.5258872,40.7832244],[44.5261552,40.7831553],[44.5271434,40.7827286],[44.5280145,40.7828737],[44.5287759,40.7836401],[44.5304643,40.7833222],[44.532313,40.7822454],[44.5336025,40.7812274],[44.5344412,40.7809398],[44.5352491,40.7808598],[44.5365812,40.7813034],[44.536691,40.7815942],[44.5382275,40.7815423],[44.5388173,40.781428],[44.5391312,40.7812485],[44.5393039,40.7798703],[44.5400979,40.7798247],[44.5405705,40.7809662],[44.5409779,40.7816272],[44.5418316,40.7819357],[44.542415,40.7820085],[44.5438107,40.7819059],[44.5445647,40.7819602],[44.5453908,40.7821244],[44.5458425,40.7821954],[44.5463335,40.7822352],[44.5466972,40.782214],[44.5471467,40.7821563],[44.5475933,40.7820376],[44.5480273,40.7818162],[44.5490069,40.7813153],[44.5501459,40.780672],[44.5502627,40.7808836],[44.5506406,40.7815681],[44.5508622,40.7817001],[44.5513117,40.7817106],[44.5525322,40.7812816],[44.5537485,40.7810573],[44.5538541,40.7816475],[44.5520569,40.7828314],[44.551639,40.783573],[44.5508159,40.7841651],[44.5495812,40.7850064],[44.5482189,40.7850861],[44.5467974,40.7850766],[44.5465315,40.785995],[44.5462853,40.7864969],[44.5457702,40.7864416],[44.5451597,40.7859742],[44.5445492,40.7854029],[44.5439097,40.7849379],[44.5434829,40.7851876],[44.5431411,40.7851969],[44.5419621,40.7849917],[44.5375246,40.784433],[44.5351912,40.7855352],[44.534357,40.78602],[44.5342199,40.7865194],[44.5343198,40.7868063],[44.5344928,40.7869454],[44.5354046,40.7874742],[44.536552,40.7879007],[44.5367627,40.7892075],[44.5371869,40.789848],[44.5371507,40.7905001],[44.5375555,40.7909496],[44.5393986,40.7923744],[44.5408763,40.7933927],[44.538545,40.7945922],[44.5360039,40.7959433],[44.5357125,40.796575],[44.5340828,40.797674],[44.5326119,40.7982977],[44.5315247,40.7987582],[44.5296699,40.799611],[44.5266329,40.8006099],[44.5258696,40.8008609],[44.526159,40.8012972],[44.5251363,40.8017642],[44.5239433,40.8019728],[44.5239438,40.801999],[44.523986,40.8040917],[44.5240503,40.8053094],[44.5261533,40.8061698],[44.5260697,40.806624],[44.5244504,40.8074736],[44.5236639,40.80738],[44.5228147,40.807751],[44.5225685,40.8076131],[44.5216948,40.8072792],[44.5211321,40.8077197],[44.5206833,40.8081474],[44.5201483,40.8083209],[44.5198427,40.8082665],[44.5196577,40.8079914],[44.52023,40.8074113],[44.5203561,40.8067579],[44.5201427,40.8063467],[44.5195808,40.8061666],[44.5175354,40.8060841],[44.5130509,40.8077727],[44.5109134,40.8085918],[44.5087612,40.8088986],[44.50757,40.8091096],[44.5075085,40.8091205],[44.5065676,40.8098253],[44.5061214,40.8104273],[44.5048229,40.8114427],[44.5042472,40.8119525],[44.5029781,40.8125584],[44.5024319,40.8125541],[44.5021845,40.8124168],[44.5019568,40.8121773],[44.5017704,40.8120749],[44.5015159,40.8120054],[44.5009728,40.8118299],[44.5006791,40.8117032],[44.5003789,40.8116366],[44.4998235,40.8117306],[44.499412,40.8121874],[44.49929,40.8124753],[44.4989232,40.8133414],[44.4988385,40.8135413],[44.4985938,40.8137925],[44.4983014,40.8140928],[44.497823,40.8146389],[44.4976741,40.814823],[44.4976226,40.8148868],[44.4977424,40.8151027],[44.4979138,40.8151955],[44.497977,40.8152751],[44.4980463,40.8152644],[44.4984868,40.8151928],[44.4991949,40.8151707],[44.4993115,40.8152278],[44.4994866,40.8161506],[44.4995123,40.8162861],[44.4991001,40.8164611],[44.4987242,40.8166905],[44.4982173,40.8167419],[44.4975238,40.8167474],[44.497086,40.8168006],[44.4966178,40.8169496],[44.4957504,40.8172888],[44.4957259,40.8174271],[44.4954627,40.8174617],[44.4951197,40.8175343],[44.4947288,40.8175359],[44.4923538,40.8183152],[44.4919275,40.8184615],[44.4920088,40.8190373],[44.491685,40.8190782],[44.491229,40.8187111],[44.4907731,40.8185569],[44.4902396,40.8187258],[44.4900747,40.8189093],[44.4905889,40.8192328],[44.4907734,40.8195124],[44.490563,40.8195915],[44.4897061,40.8193424],[44.489192,40.8193718],[44.4883092,40.8198857],[44.4874168,40.8199004],[44.4868321,40.819931],[44.4865314,40.8201953],[44.4856584,40.820621],[44.4851403,40.8208277],[44.4851248,40.8208339],[44.4849114,40.8215019],[44.484601,40.8220305],[44.4842781,40.8228338],[44.4838898,40.8227436],[44.4834454,40.8224198],[44.4827846,40.8222924],[44.4816502,40.822452],[44.4814161,40.8226598],[44.4812634,40.822856],[44.4808038,40.8235723],[44.4786381,40.8239999],[44.4766457,40.8258682],[44.4743332,40.8260979],[44.471748,40.8256707],[44.4702514,40.826432],[44.466697,40.8270558],[44.4626032,40.8275345],[44.4621488,40.8276265],[44.4621936,40.8280943],[44.4627358,40.8283391],[44.461959,40.8292594],[44.4619268,40.8319016],[44.4612954,40.8347715],[44.4613748,40.8361105],[44.4615528,40.8373262],[44.4615571,40.8373555],[44.4617505,40.8382299],[44.4610497,40.8390008],[44.4605869,40.8395753],[44.460517,40.8400079],[44.4599432,40.8406594],[44.4597463,40.8407664],[44.4589896,40.841126],[44.4583853,40.8419528],[44.4572502,40.8434728],[44.4544843,40.8439588],[44.4509145,40.8443404],[44.4496113,40.8443905],[44.4486544,40.8444272],[44.4466682,40.8448765],[44.4450385,40.8439079],[44.4409171,40.8464507],[44.4356681,40.8486579],[44.4306729,40.8487868],[44.4288095,40.8486666],[44.4276495,40.8482782],[44.426585,40.8481268],[44.4252331,40.8481453],[44.4235523,40.8480237],[44.4221118,40.8471105],[44.4199857,40.8453774]]]]},"properties":{"slug":"vanadzor","kind":"TOWN","city":"Vanadzor","marz":"Վանաձոր համայնք","osmType":"relation","osmId":7825883,"nameHy":"Վանաձոր","nameRu":"Ванадзор","nameEn":"Vanadzor"}},{"type":"Feature","geometry":{"type":"MultiPolygon","coordinates":[[[[44.8053633,40.7531388],[44.8065483,40.7518614],[44.8075796,40.7498424],[44.8076641,40.749732],[44.8078251,40.7487525],[44.8095417,40.7481023],[44.8111939,40.7477934],[44.8122024,40.7474683],[44.8139405,40.7469319],[44.8156571,40.7464604],[44.8174703,40.7461353],[44.8193478,40.7456476],[44.821279,40.7450136],[44.8221373,40.7446884],[44.8236179,40.7439894],[44.8240061,40.7434238],[44.8242198,40.7431125],[44.8244548,40.7427701],[44.8248623,40.7424456],[44.8257008,40.741778],[44.8257208,40.7417621],[44.8257479,40.7417345],[44.8259272,40.7415517],[44.8263536,40.7405107],[44.8272281,40.7402487],[44.8275248,40.7393866],[44.8282099,40.7385431],[44.8296261,40.7381041],[44.8316002,40.7378765],[44.832716,40.7380228],[44.8338318,40.738039],[44.8346728,40.7379077],[44.8405707,40.7369869],[44.8415701,40.7368309],[44.8432844,40.7367733],[44.844769,40.7367233],[44.8452902,40.7367058],[44.8488736,40.7364132],[44.8505687,40.7361693],[44.8517093,40.7368689],[44.8519206,40.7369985],[44.8522054,40.7369949],[44.8545272,40.7369654],[44.8579931,40.7369822],[44.8611774,40.7366492],[44.8624966,40.7363402],[44.8634222,40.7366993],[44.8637867,40.7365148],[44.8643232,40.7347304],[44.8650956,40.7328605],[44.8654819,40.7319093],[44.8656317,40.7308692],[44.8658788,40.729389],[44.8661296,40.7274962],[44.8659968,40.7271369],[44.8654175,40.7261855],[44.8646021,40.7259172],[44.8628425,40.7256652],[44.8624134,40.7255676],[44.8614263,40.7252424],[44.8604393,40.7248521],[44.8593449,40.7245269],[44.8574352,40.7246082],[44.8561477,40.7249659],[44.8550543,40.725193],[44.854389,40.7257635],[44.8529291,40.7258603],[44.8523068,40.7262506],[44.8513198,40.726462],[44.8511178,40.7263978],[44.8506546,40.7262506],[44.8503971,40.7255513],[44.8505044,40.7246407],[44.8502855,40.7242675],[44.8501611,40.7240553],[44.8499303,40.7238932],[44.8491311,40.7236162],[44.848262,40.7230308],[44.8485518,40.7219087],[44.8489916,40.7214777],[44.8497105,40.7210386],[44.8507619,40.7204613],[44.851147,40.720265],[44.8513198,40.7195993],[44.85147,40.7182088],[44.8516202,40.7174769],[44.851706,40.7162572],[44.8515022,40.7152489],[44.8512447,40.7142567],[44.850719,40.7134923],[44.8500967,40.7127197],[44.8495589,40.7123586],[44.8493457,40.7122155],[44.8487019,40.7114185],[44.8487048,40.711368],[44.8487663,40.7102963],[44.8486376,40.709792],[44.8475432,40.7090438],[44.8462772,40.7084908],[44.8437023,40.7070757],[44.8425873,40.7067541],[44.8419213,40.7061485],[44.8414278,40.7057093],[44.841299,40.7049936],[44.8412561,40.7043429],[44.841299,40.7035784],[44.8414199,40.7035394],[44.8423075,40.703253],[44.84308,40.7041314],[44.8444533,40.7052701],[44.84514,40.7056605],[44.8460626,40.7062949],[44.8470497,40.7067991],[44.8478007,40.7073359],[44.8488736,40.7073522],[44.8490404,40.7072181],[44.8495817,40.7067829],[44.849925,40.7060834],[44.8498606,40.7054328],[44.8496431,40.7049127],[44.8495817,40.7047658],[44.8496037,40.7045542],[44.8496461,40.7041477],[44.8493671,40.7036597],[44.8492598,40.7028951],[44.8495602,40.7019028],[44.8495602,40.7012521],[44.849689,40.7005364],[44.8493886,40.6997555],[44.8493886,40.6992837],[44.8493169,40.6983735],[44.8497319,40.6980962],[44.8492169,40.6973966],[44.8490238,40.6971526],[44.849018,40.6971208],[44.8489165,40.6965669],[44.8492598,40.6962741],[44.8499903,40.6960351],[44.8505258,40.6958348],[44.8512125,40.6955583],[44.8517489,40.6948912],[44.8529613,40.6942975],[44.8541737,40.6942405],[44.8549783,40.6948994],[44.8547315,40.6957373],[44.854356,40.6961602],[44.8536586,40.6968847],[44.8535514,40.6971953],[44.8531973,40.6980637],[44.8530685,40.6990886],[44.8528755,40.6997474],[44.8525,40.7000849],[44.8522532,40.7010082],[44.852162,40.7015856],[44.8521619,40.7026918],[44.8520332,40.7036028],[44.8519903,40.7044039],[44.8521298,40.7050342],[44.8523068,40.7063274],[44.8526072,40.7070757],[44.8526072,40.7079865],[44.8522424,40.7085558],[44.8518669,40.7091983],[44.8517865,40.7100156],[44.8522424,40.7107192],[44.8528647,40.7114185],[44.8540011,40.7126468],[44.8540234,40.7126709],[44.8545813,40.7133215],[44.8553431,40.7141104],[44.8566413,40.7151838],[44.8572635,40.7156717],[44.8579073,40.7161352],[44.8585939,40.7166394],[44.8594737,40.7168183],[44.8607397,40.7167207],[44.8616409,40.7167695],[44.8634863,40.7168508],[44.8642688,40.7172021],[44.8644196,40.7182376],[44.864479,40.7193863],[44.8641177,40.7199484],[44.8608255,40.7206727],[44.8596024,40.7207215],[44.8579931,40.7206727],[44.8565769,40.7204775],[44.854989,40.7209329],[44.8543238,40.7213232],[44.8539162,40.7215672],[44.8540127,40.7219494],[44.8541521,40.7221526],[44.8548388,40.7222909],[44.856255,40.7221038],[44.8567323,40.7220676],[44.8579716,40.7219737],[44.8598814,40.7227543],[44.8603798,40.7230405],[44.8605895,40.7231609],[44.8613011,40.7232521],[44.8619842,40.7233397],[44.8635506,40.7233885],[44.8639471,40.7235173],[44.8647523,40.7237788],[44.8666405,40.7246244],[44.8680192,40.7255818],[44.8685717,40.7273564],[44.8681855,40.728332],[44.868164,40.7291613],[44.8683357,40.7303646],[44.8681748,40.7317792],[44.8678422,40.7329499],[44.8681962,40.7341206],[44.868443,40.7349661],[44.8689687,40.735584],[44.8699021,40.7358929],[44.8705458,40.7364782],[44.8702267,40.7370838],[44.8701929,40.7375982],[44.8702882,40.7378074],[44.8707031,40.738801],[44.8720244,40.7391193],[44.8724757,40.7397482],[44.8733602,40.7397519],[44.8753932,40.7392403],[44.8762613,40.7398754],[44.8772862,40.7403532],[44.8779437,40.7412663],[44.8790311,40.741629],[44.8794886,40.7423468],[44.8797479,40.7427148],[44.8811674,40.7427701],[44.8828394,40.7421144],[44.8829913,40.7420548],[44.8847508,40.7418109],[44.8859739,40.7415183],[44.8864245,40.7414045],[44.8871583,40.741708],[44.8869824,40.7429164],[44.8867035,40.7435992],[44.8863387,40.7444283],[44.8864031,40.7448185],[44.8872614,40.7456151],[44.8876905,40.7459565],[44.8881626,40.7464442],[44.8883986,40.7470131],[44.8888707,40.7475496],[44.8892569,40.7482323],[44.8906946,40.7485087],[44.8910165,40.7488338],[44.891746,40.749289],[44.8927331,40.7494678],[44.8939991,40.7492727],[44.895072,40.7491589],[44.8958444,40.7493215],[44.8968959,40.7498417],[44.8978501,40.7501143],[44.8988949,40.7504127],[44.8994833,40.7505808],[44.8998612,40.7510564],[44.9003533,40.7512752],[44.9012271,40.7517522],[44.9020089,40.7517692],[44.9027222,40.7522021],[44.9029685,40.7532886],[44.9033344,40.7534057],[44.9053716,40.7543118],[44.9069595,40.7545719],[44.9079251,40.7549945],[44.9080008,40.7550301],[44.9091697,40.7555797],[44.9101996,40.756051],[44.9109936,40.7569125],[44.9109721,40.7575626],[44.924821,40.7581204],[44.9263357,40.7597812],[44.9315378,40.7606964],[44.9331934,40.7622146],[44.9336229,40.7632263],[44.9333043,40.7648538],[44.9302052,40.7654302],[44.9215525,40.7675242],[44.9172356,40.7660152],[44.9122274,40.7632512],[44.9101665,40.7626181],[44.9084248,40.7609683],[44.9074524,40.7604539],[44.905973,40.760349],[44.9049425,40.7601957],[44.9039125,40.7597081],[44.9031615,40.7592368],[44.9000311,40.7589748],[44.8982048,40.7587654],[44.8962521,40.7587166],[44.8947286,40.7588304],[44.8930549,40.7592205],[44.891231,40.7600657],[44.8895996,40.7601319],[44.8889834,40.7599506],[44.8888707,40.7601727],[44.8886221,40.7603488],[44.8884616,40.7604679],[44.8879041,40.7603498],[44.8875017,40.7600793],[44.8877608,40.7595473],[44.886896,40.7590321],[44.8862151,40.7586661],[44.8854019,40.7584898],[44.8838513,40.7585185],[44.8828569,40.7586006],[44.880618,40.7578429],[44.8778199,40.7568958],[44.8735626,40.7552302],[44.8733301,40.7549842],[44.8670086,40.7482951],[44.8658895,40.7462816],[44.8639848,40.7454275],[44.8637867,40.7453387],[44.8609542,40.7449486],[44.8604849,40.7449441],[44.8602164,40.7449149],[44.8588356,40.7449761],[44.8586368,40.7449811],[44.8568552,40.7452314],[44.8557186,40.7460703],[44.8550534,40.747192],[44.854474,40.7479072],[44.8531008,40.7481998],[44.8526716,40.7481673],[44.8512339,40.7474358],[44.8507491,40.7474784],[44.8497712,40.7475308],[44.8479591,40.7482923],[44.8470386,40.7490222],[44.8434985,40.7509188],[44.8415565,40.757839],[44.8408484,40.7584728],[44.8399687,40.7591392],[44.8391533,40.7601144],[44.8386383,40.7606508],[44.8380375,40.7609108],[44.8375357,40.7610836],[44.8373845,40.7611356],[44.8373294,40.7611546],[44.8370346,40.7612415],[44.8365569,40.7613822],[44.8349261,40.7611871],[44.8344326,40.7608946],[44.8341965,40.7604232],[44.8326087,40.7602119],[44.8320725,40.7598181],[44.8319006,40.7596918],[44.8307848,40.7589279],[44.8303466,40.7585221],[44.8295188,40.7576927],[44.8289079,40.7569201],[44.8280382,40.755856],[44.8269991,40.754061],[44.8268987,40.7537226],[44.8277154,40.7535268],[44.8285866,40.7527235],[44.8298745,40.7523027],[44.8312238,40.7522112],[44.8303448,40.7508581],[44.8281345,40.7498484],[44.8278268,40.7485],[44.8282957,40.7478747],[44.8272443,40.7469969],[44.826902,40.7467444],[44.8264289,40.7463954],[44.8248625,40.7464442],[44.8236823,40.7474195],[44.8232317,40.7478422],[44.8228074,40.7479923],[44.8221159,40.7481836],[44.8203134,40.7478259],[44.8194122,40.7475984],[44.8187256,40.7478259],[44.8173952,40.7483787],[44.8154104,40.7487323],[44.8144053,40.7485648],[44.8135328,40.7487525],[44.8117196,40.7492971],[44.8091769,40.7509633],[44.809133,40.7509933],[44.8087799,40.7524303],[44.8087256,40.7534664],[44.8078812,40.7546437],[44.8067451,40.7547325],[44.8055506,40.7541005],[44.8053633,40.7531388]]]]},"properties":{"slug":"dilijan","kind":"TOWN","city":"Dilijan","marz":"Դիլիջան համայնք","osmType":"way","osmId":177131875,"nameHy":"Դիլիջան","nameRu":"Дилиджан","nameEn":"Dilijan"}}]}
