{"type":"FeatureCollection","attribution":"© OpenStreetMap contributors, ODbL 1.0 — https://www.openstreetmap.org/copyright","note":"Partial dataset: METRO stations only (railway=station + station=subway, Yerevan bbox), coordinates rounded to 4 decimals; OSM ids and hy/ru names not captured. Run `pnpm osm:fetch` to complete the remaining categories; it keeps existing ones.","fetchedAt":"2026-09-11T09:27:00.000Z","categories":["METRO"],"features":[{"type":"Feature","geometry":{"type":"Point","coordinates":[44.5072,40.1546]},"properties":{"category":"METRO","osmType":"node","osmId":null,"nameHy":null,"nameRu":null,"nameEn":"Sasuntsi David"}},{"type":"Feature","geometry":{"type":"Point","coordinates":[44.4987,40.1411]},"properties":{"category":"METRO","osmType":"node","osmId":null,"nameHy":null,"nameRu":null,"nameEn":"Gortsaranayin"}},{"type":"Feature","geometry":{"type":"Point","coordinates":[44.4833,40.1508]},"properties":{"category":"METRO","osmType":"node","osmId":null,"nameHy":null,"nameRu":null,"nameEn":"Garegin Nzhdeh Square"}},{"type":"Feature","geometry":{"type":"Point","coordinates":[44.4859,40.1449]},"properties":{"category":"METRO","osmType":"node","osmId":null,"nameHy":null,"nameRu":null,"nameEn":"Shengavit"}},{"type":"Feature","geometry":{"type":"Point","coordinates":[44.5122,40.1713]},"properties":{"category":"METRO","osmType":"node","osmId":null,"nameHy":null,"nameRu":null,"nameEn":"General Andranik"}},{"type":"Feature","geometry":{"type":"Point","coordinates":[44.5155,40.1776]},"properties":{"category":"METRO","osmType":"node","osmId":null,"nameHy":null,"nameRu":null,"nameEn":"Republic Square"}},{"type":"Feature","geometry":{"type":"Point","coordinates":[44.5199,40.1862]},"properties":{"category":"METRO","osmType":"node","osmId":null,"nameHy":null,"nameRu":null,"nameEn":"Yeritasardakan"}},{"type":"Feature","geometry":{"type":"Point","coordinates":[44.5079,40.1915]},"properties":{"category":"METRO","osmType":"node","osmId":null,"nameHy":null,"nameRu":null,"nameEn":"Marshal Baghramyan"}},{"type":"Feature","geometry":{"type":"Point","coordinates":[44.495,40.1969]},"properties":{"category":"METRO","osmType":"node","osmId":null,"nameHy":null,"nameRu":null,"nameEn":"Barekamutyun"}},{"type":"Feature","geometry":{"type":"Point","coordinates":[44.4708,40.1407]},"properties":{"category":"METRO","osmType":"node","osmId":null,"nameHy":null,"nameRu":null,"nameEn":"Charbakh"}}]}
